{
"type": "FeatureCollection",
"name": "transit",
"crs": { "type": "name", "properties": { "name": "urn:ogc:def:crs:OGC:1.3:CRS84" } },
"features": [
{ "type": "Feature", "properties": { "element": "node", "id": 318132819, "highway": null }, "geometry": { "type": "Point", "coordinates": [ 73.1789829, 22.2846096 ] } },
{ "type": "Feature", "properties": { "element": "node", "id": 318135704, "highway": null }, "geometry": { "type": "Point", "coordinates": [ 73.2108325, 22.2814988 ] } },
{ "type": "Feature", "properties": { "element": "node", "id": 318140382, "highway": null }, "geometry": { "type": "Point", "coordinates": [ 73.1759325, 22.233662 ] } },
{ "type": "Feature", "properties": { "element": "node", "id": 318143159, "highway": null }, "geometry": { "type": "Point", "coordinates": [ 73.1656446, 22.3712532 ] } },
{ "type": "Feature", "properties": { "element": "node", "id": 318143940, "highway": null }, "geometry": { "type": "Point", "coordinates": [ 73.14378, 22.3668433 ] } },
{ "type": "Feature", "properties": { "element": "node", "id": 318145714, "highway": null }, "geometry": { "type": "Point", "coordinates": [ 73.1535522, 22.2752488 ] } },
{ "type": "Feature", "properties": { "element": "node", "id": 318146637, "highway": null }, "geometry": { "type": "Point", "coordinates": [ 73.1307042, 22.2656461 ] } },
{ "type": "Feature", "properties": { "element": "node", "id": 318146910, "highway": null }, "geometry": { "type": "Point", "coordinates": [ 73.0899864, 22.2372745 ] } },
{ "type": "Feature", "properties": { "element": "node", "id": 319330553, "highway": null }, "geometry": { "type": "Point", "coordinates": [ 73.2098796, 22.4151532 ] } },
{ "type": "Feature", "properties": { "element": "node", "id": 1065383952, "highway": null }, "geometry": { "type": "Point", "coordinates": [ 73.1794959, 22.2840125 ] } },
{ "type": "Feature", "properties": { "element": "node", "id": 2669085037, "highway": null }, "geometry": { "type": "Point", "coordinates": [ 73.1808008, 22.3110728 ] } },
{ "type": "Feature", "properties": { "element": "node", "id": 4348518506, "highway": "bus_stop" }, "geometry": { "type": "Point", "coordinates": [ 73.1948181, 22.3627422 ] } },
{ "type": "Feature", "properties": { "element": "node", "id": 5590108917, "highway": null }, "geometry": { "type": "Point", "coordinates": [ 73.1711506, 22.1878696 ] } },
{ "type": "Feature", "properties": { "element": "node", "id": 6696347029, "highway": null }, "geometry": { "type": "Point", "coordinates": [ 73.2692653, 22.2411647 ] } },
{ "type": "Feature", "properties": { "element": "node", "id": 6714775489, "highway": "bus_stop" }, "geometry": { "type": "Point", "coordinates": [ 73.2553656, 22.3236865 ] } },
{ "type": "Feature", "properties": { "element": "node", "id": 6724288800, "highway": null }, "geometry": { "type": "Point", "coordinates": [ 73.1128283, 22.4055821 ] } },
{ "type": "Feature", "properties": { "element": "node", "id": 12847142377, "highway": "bus_stop" }, "geometry": { "type": "Point", "coordinates": [ 73.2175223, 22.3366081 ] } },
{ "type": "Feature", "properties": { "element": "node", "id": 12847142392, "highway": "bus_stop" }, "geometry": { "type": "Point", "coordinates": [ 73.2175201, 22.3357564 ] } },
{ "type": "Feature", "properties": { "element": "way", "id": 584880996, "highway": null }, "geometry": { "type": "Point", "coordinates": [ 73.175972993743116, 22.234387755665288 ] } },
{ "type": "Feature", "properties": { "element": "way", "id": 584880997, "highway": null }, "geometry": { "type": "Point", "coordinates": [ 73.175767998295584, 22.234149028116668 ] } },
{ "type": "Feature", "properties": { "element": "way", "id": 584881005, "highway": null }, "geometry": { "type": "Point", "coordinates": [ 73.178918314690918, 22.283848832013476 ] } },
{ "type": "Feature", "properties": { "element": "way", "id": 584881006, "highway": null }, "geometry": { "type": "Point", "coordinates": [ 73.178704249620495, 22.283774655609385 ] } },
{ "type": "Feature", "properties": { "element": "way", "id": 767331849, "highway": null }, "geometry": { "type": "Point", "coordinates": [ 73.180379601701176, 22.309758291857609 ] } },
{ "type": "Feature", "properties": { "element": "way", "id": 767331851, "highway": null }, "geometry": { "type": "Point", "coordinates": [ 73.180108417813329, 22.311342761718585 ] } },
{ "type": "Feature", "properties": { "element": "way", "id": 914022125, "highway": null }, "geometry": { "type": "Point", "coordinates": [ 73.180580462906178, 22.310280224908674 ] } },
{ "type": "Feature", "properties": { "element": "way", "id": 914023382, "highway": null }, "geometry": { "type": "Point", "coordinates": [ 73.180748822078769, 22.310594240288459 ] } },
{ "type": "Feature", "properties": { "element": "way", "id": 984765066, "highway": null }, "geometry": { "type": "Point", "coordinates": [ 73.269306372613514, 22.241068611167375 ] } },
{ "type": "Feature", "properties": { "element": "way", "id": 984941523, "highway": null }, "geometry": { "type": "Point", "coordinates": [ 73.089939639682498, 22.237245266506605 ] } },
{ "type": "Feature", "properties": { "element": "way", "id": 984941540, "highway": null }, "geometry": { "type": "Point", "coordinates": [ 73.130724438221861, 22.265661921971731 ] } },
{ "type": "Feature", "properties": { "element": "way", "id": 985286798, "highway": null }, "geometry": { "type": "Point", "coordinates": [ 73.210893389049815, 22.281536442411568 ] } },
{ "type": "Feature", "properties": { "element": "way", "id": 985286799, "highway": null }, "geometry": { "type": "Point", "coordinates": [ 73.212408589581415, 22.281206695508551 ] } },
{ "type": "Feature", "properties": { "element": "way", "id": 1314691174, "highway": null }, "geometry": { "type": "Point", "coordinates": [ 73.143401449442763, 22.366628446457863 ] } },
{ "type": "Feature", "properties": { "element": "way", "id": 1466727306, "highway": null }, "geometry": { "type": "Point", "coordinates": [ 73.165712771859702, 22.371742051480641 ] } },
{ "type": "Feature", "properties": { "element": "way", "id": 1466727310, "highway": null }, "geometry": { "type": "Point", "coordinates": [ 73.165879653479536, 22.371499505507821 ] } },
{ "type": "Feature", "properties": { "element": "way", "id": 1530442849, "highway": null }, "geometry": { "type": "Point", "coordinates": [ 73.209298570103371, 22.415003947869923 ] } },
{ "type": "Feature", "properties": { "element": "way", "id": 1530442859, "highway": null }, "geometry": { "type": "Point", "coordinates": [ 73.208871794435993, 22.415153252574967 ] } }
]
}
