{
"type": "FeatureCollection",
"name": "transit",
"crs": { "type": "name", "properties": { "name": "urn:ogc:def:crs:OGC:1.3:CRS84" } },
"features": [
{ "type": "Feature", "properties": { "element": "node", "id": 414782961, "highway": null }, "geometry": { "type": "Point", "coordinates": [ 72.8407427, 21.2050293 ] } },
{ "type": "Feature", "properties": { "element": "node", "id": 1523485478, "highway": null }, "geometry": { "type": "Point", "coordinates": [ 72.867483, 21.2611962 ] } },
{ "type": "Feature", "properties": { "element": "node", "id": 4730516847, "highway": null }, "geometry": { "type": "Point", "coordinates": [ 72.8509905, 21.1704267 ] } },
{ "type": "Feature", "properties": { "element": "node", "id": 4734513821, "highway": "bus_stop" }, "geometry": { "type": "Point", "coordinates": [ 72.8801994, 21.221451 ] } },
{ "type": "Feature", "properties": { "element": "node", "id": 5333535305, "highway": "bus_stop" }, "geometry": { "type": "Point", "coordinates": [ 72.8133342, 21.1479302 ] } },
{ "type": "Feature", "properties": { "element": "node", "id": 5333535310, "highway": "bus_stop" }, "geometry": { "type": "Point", "coordinates": [ 72.8182597, 21.1490194 ] } },
{ "type": "Feature", "properties": { "element": "node", "id": 5333535315, "highway": "bus_stop" }, "geometry": { "type": "Point", "coordinates": [ 72.8231183, 21.1495182 ] } },
{ "type": "Feature", "properties": { "element": "node", "id": 5333535325, "highway": "bus_stop" }, "geometry": { "type": "Point", "coordinates": [ 72.8372486, 21.1512156 ] } },
{ "type": "Feature", "properties": { "element": "node", "id": 5333535406, "highway": "bus_stop" }, "geometry": { "type": "Point", "coordinates": [ 72.8280888, 21.1501105 ] } },
{ "type": "Feature", "properties": { "element": "node", "id": 5333535722, "highway": "bus_stop" }, "geometry": { "type": "Point", "coordinates": [ 72.8062797, 21.1463403 ] } },
{ "type": "Feature", "properties": { "element": "node", "id": 5341283853, "highway": null }, "geometry": { "type": "Point", "coordinates": [ 72.8551871, 21.2335705 ] } },
{ "type": "Feature", "properties": { "element": "node", "id": 5351369951, "highway": null }, "geometry": { "type": "Point", "coordinates": [ 72.8630342, 21.1225832 ] } },
{ "type": "Feature", "properties": { "element": "node", "id": 5568408848, "highway": null }, "geometry": { "type": "Point", "coordinates": [ 72.8744643, 21.0778781 ] } },
{ "type": "Feature", "properties": { "element": "node", "id": 5571100123, "highway": null }, "geometry": { "type": "Point", "coordinates": [ 72.8790724, 21.2908388 ] } },
{ "type": "Feature", "properties": { "element": "node", "id": 6177088580, "highway": null }, "geometry": { "type": "Point", "coordinates": [ 72.9563212, 21.157369 ] } },
{ "type": "Feature", "properties": { "element": "node", "id": 6177088581, "highway": null }, "geometry": { "type": "Point", "coordinates": [ 72.9031608, 21.1602786 ] } },
{ "type": "Feature", "properties": { "element": "node", "id": 7944681327, "highway": null }, "geometry": { "type": "Point", "coordinates": [ 72.7890318, 21.1901059 ] } },
{ "type": "Feature", "properties": { "element": "node", "id": 7944685514, "highway": null }, "geometry": { "type": "Point", "coordinates": [ 72.7811788, 21.2185073 ] } },
{ "type": "Feature", "properties": { "element": "node", "id": 7944685542, "highway": null }, "geometry": { "type": "Point", "coordinates": [ 72.833497, 21.1980723 ] } },
{ "type": "Feature", "properties": { "element": "node", "id": 7944685634, "highway": null }, "geometry": { "type": "Point", "coordinates": [ 72.8867155, 21.2234482 ] } },
{ "type": "Feature", "properties": { "element": "node", "id": 7944685690, "highway": null }, "geometry": { "type": "Point", "coordinates": [ 72.8193423, 21.1870443 ] } },
{ "type": "Feature", "properties": { "element": "node", "id": 7944685781, "highway": null }, "geometry": { "type": "Point", "coordinates": [ 72.8416751, 21.2038763 ] } },
{ "type": "Feature", "properties": { "element": "node", "id": 7944685803, "highway": null }, "geometry": { "type": "Point", "coordinates": [ 72.8796512, 21.1897025 ] } },
{ "type": "Feature", "properties": { "element": "node", "id": 7944686032, "highway": null }, "geometry": { "type": "Point", "coordinates": [ 72.848225, 21.2059681 ] } },
{ "type": "Feature", "properties": { "element": "node", "id": 7944686103, "highway": null }, "geometry": { "type": "Point", "coordinates": [ 72.7857985, 21.1953202 ] } },
{ "type": "Feature", "properties": { "element": "node", "id": 7944686191, "highway": null }, "geometry": { "type": "Point", "coordinates": [ 72.7825931, 21.2087435 ] } },
{ "type": "Feature", "properties": { "element": "node", "id": 7944686216, "highway": null }, "geometry": { "type": "Point", "coordinates": [ 72.7769411, 21.2214427 ] } },
{ "type": "Feature", "properties": { "element": "node", "id": 7944686305, "highway": null }, "geometry": { "type": "Point", "coordinates": [ 72.8675472, 21.2164638 ] } },
{ "type": "Feature", "properties": { "element": "node", "id": 7944686322, "highway": null }, "geometry": { "type": "Point", "coordinates": [ 72.8549362, 21.2094807 ] } },
{ "type": "Feature", "properties": { "element": "node", "id": 7944686379, "highway": null }, "geometry": { "type": "Point", "coordinates": [ 72.8492992, 21.1852262 ] } },
{ "type": "Feature", "properties": { "element": "node", "id": 7944686516, "highway": null }, "geometry": { "type": "Point", "coordinates": [ 72.8183933, 21.1809637 ] } },
{ "type": "Feature", "properties": { "element": "node", "id": 7944686517, "highway": null }, "geometry": { "type": "Point", "coordinates": [ 72.7828411, 21.1996868 ] } },
{ "type": "Feature", "properties": { "element": "node", "id": 7944686610, "highway": null }, "geometry": { "type": "Point", "coordinates": [ 72.800609, 21.1875752 ] } },
{ "type": "Feature", "properties": { "element": "node", "id": 7944686902, "highway": null }, "geometry": { "type": "Point", "coordinates": [ 72.8158508, 21.1708668 ] } },
{ "type": "Feature", "properties": { "element": "node", "id": 7944687002, "highway": null }, "geometry": { "type": "Point", "coordinates": [ 72.8116873, 21.1619549 ] } },
{ "type": "Feature", "properties": { "element": "node", "id": 7944687014, "highway": null }, "geometry": { "type": "Point", "coordinates": [ 72.8768759, 21.2195656 ] } },
{ "type": "Feature", "properties": { "element": "node", "id": 7944687263, "highway": null }, "geometry": { "type": "Point", "coordinates": [ 72.8942256, 21.2268945 ] } },
{ "type": "Feature", "properties": { "element": "node", "id": 7944687288, "highway": null }, "geometry": { "type": "Point", "coordinates": [ 72.892983, 21.1890207 ] } },
{ "type": "Feature", "properties": { "element": "node", "id": 7944687322, "highway": null }, "geometry": { "type": "Point", "coordinates": [ 72.8079714, 21.1846971 ] } },
{ "type": "Feature", "properties": { "element": "node", "id": 7944687381, "highway": null }, "geometry": { "type": "Point", "coordinates": [ 72.8685756, 21.1902027 ] } },
{ "type": "Feature", "properties": { "element": "node", "id": 8468073428, "highway": null }, "geometry": { "type": "Point", "coordinates": [ 72.8191985, 21.1957218 ] } },
{ "type": "Feature", "properties": { "element": "node", "id": 8468073675, "highway": null }, "geometry": { "type": "Point", "coordinates": [ 72.7993591, 21.1220565 ] } },
{ "type": "Feature", "properties": { "element": "node", "id": 8468073676, "highway": null }, "geometry": { "type": "Point", "coordinates": [ 72.7690064, 21.2197174 ] } },
{ "type": "Feature", "properties": { "element": "node", "id": 8468073746, "highway": null }, "geometry": { "type": "Point", "coordinates": [ 72.8079385, 21.1525979 ] } },
{ "type": "Feature", "properties": { "element": "node", "id": 8780546324, "highway": null }, "geometry": { "type": "Point", "coordinates": [ 72.798177700000011, 21.1287356 ] } },
{ "type": "Feature", "properties": { "element": "node", "id": 8780546326, "highway": null }, "geometry": { "type": "Point", "coordinates": [ 72.8008788, 21.1359796 ] } },
{ "type": "Feature", "properties": { "element": "node", "id": 8780546327, "highway": null }, "geometry": { "type": "Point", "coordinates": [ 72.8050529, 21.1452026 ] } },
{ "type": "Feature", "properties": { "element": "node", "id": 12782633070, "highway": null }, "geometry": { "type": "Point", "coordinates": [ 72.9321934, 21.1787232 ] } },
{ "type": "Feature", "properties": { "element": "node", "id": 13136830881, "highway": null }, "geometry": { "type": "Point", "coordinates": [ 72.7979275, 21.1111703 ] } },
{ "type": "Feature", "properties": { "element": "node", "id": 13629719905, "highway": null }, "geometry": { "type": "Point", "coordinates": [ 72.7925147, 21.1861257 ] } },
{ "type": "Feature", "properties": { "element": "node", "id": 13630108485, "highway": null }, "geometry": { "type": "Point", "coordinates": [ 72.9031155, 21.2315946 ] } },
{ "type": "Feature", "properties": { "element": "node", "id": 13630108499, "highway": "bus_stop" }, "geometry": { "type": "Point", "coordinates": [ 72.9097013, 21.2370592 ] } },
{ "type": "Feature", "properties": { "element": "node", "id": 13640908896, "highway": "bus_stop" }, "geometry": { "type": "Point", "coordinates": [ 72.863258, 21.2331751 ] } },
{ "type": "Feature", "properties": { "element": "node", "id": 13640955513, "highway": "bus_stop" }, "geometry": { "type": "Point", "coordinates": [ 72.8663088, 21.2303986 ] } },
{ "type": "Feature", "properties": { "element": "node", "id": 14089602298, "highway": "bus_stop" }, "geometry": { "type": "Point", "coordinates": [ 72.8403673, 21.2042655 ] } },
{ "type": "Feature", "properties": { "element": "way", "id": 455148522, "highway": null }, "geometry": { "type": "Point", "coordinates": [ 72.841281387179009, 21.205340975770962 ] } },
{ "type": "Feature", "properties": { "element": "way", "id": 455148523, "highway": null }, "geometry": { "type": "Point", "coordinates": [ 72.840807950701162, 21.206149550830332 ] } },
{ "type": "Feature", "properties": { "element": "way", "id": 455148524, "highway": null }, "geometry": { "type": "Point", "coordinates": [ 72.840619207831651, 21.205903335049957 ] } },
{ "type": "Feature", "properties": { "element": "way", "id": 552417574, "highway": null }, "geometry": { "type": "Point", "coordinates": [ 72.806240491617331, 21.14633570268845 ] } },
{ "type": "Feature", "properties": { "element": "way", "id": 553322823, "highway": null }, "geometry": { "type": "Point", "coordinates": [ 72.855618809926554, 21.233893242155869 ] } },
{ "type": "Feature", "properties": { "element": "way", "id": 553322824, "highway": null }, "geometry": { "type": "Point", "coordinates": [ 72.855438312294581, 21.233919241552108 ] } },
{ "type": "Feature", "properties": { "element": "way", "id": 554524925, "highway": null }, "geometry": { "type": "Point", "coordinates": [ 72.86750916909682, 21.261101180646467 ] } },
{ "type": "Feature", "properties": { "element": "way", "id": 582160321, "highway": null }, "geometry": { "type": "Point", "coordinates": [ 72.875029492193605, 21.076467351197824 ] } },
{ "type": "Feature", "properties": { "element": "way", "id": 582160322, "highway": null }, "geometry": { "type": "Point", "coordinates": [ 72.874495399875286, 21.077862482317006 ] } },
{ "type": "Feature", "properties": { "element": "way", "id": 582160328, "highway": null }, "geometry": { "type": "Point", "coordinates": [ 72.863244660023895, 21.12329214420604 ] } },
{ "type": "Feature", "properties": { "element": "way", "id": 582160329, "highway": null }, "geometry": { "type": "Point", "coordinates": [ 72.862929350582647, 21.123540548398044 ] } },
{ "type": "Feature", "properties": { "element": "way", "id": 582160332, "highway": null }, "geometry": { "type": "Point", "coordinates": [ 72.851316113453933, 21.170448791078019 ] } },
{ "type": "Feature", "properties": { "element": "way", "id": 582160333, "highway": null }, "geometry": { "type": "Point", "coordinates": [ 72.850659476390163, 21.172121064431032 ] } },
{ "type": "Feature", "properties": { "element": "way", "id": 1232487998, "highway": null }, "geometry": { "type": "Point", "coordinates": [ 72.839798749971891, 21.170981922465401 ] } },
{ "type": "Feature", "properties": { "element": "way", "id": 1323359386, "highway": null }, "geometry": { "type": "Point", "coordinates": [ 72.784086151403287, 21.167388663853618 ] } },
{ "type": "Feature", "properties": { "element": "way", "id": 1323370258, "highway": null }, "geometry": { "type": "Point", "coordinates": [ 72.782215385065456, 21.166239909264078 ] } },
{ "type": "Feature", "properties": { "element": "way", "id": 1380669545, "highway": null }, "geometry": { "type": "Point", "coordinates": [ 72.932291387506126, 21.178827272898886 ] } },
{ "type": "Feature", "properties": { "element": "way", "id": 1380669546, "highway": null }, "geometry": { "type": "Point", "coordinates": [ 72.932115321523014, 21.178849202075131 ] } },
{ "type": "Feature", "properties": { "element": "way", "id": 1486844815, "highway": null }, "geometry": { "type": "Point", "coordinates": [ 72.800593000804909, 21.187590833614756 ] } },
{ "type": "Feature", "properties": { "element": "way", "id": 1486844821, "highway": null }, "geometry": { "type": "Point", "coordinates": [ 72.800563249017358, 21.187646350805213 ] } },
{ "type": "Feature", "properties": { "element": "way", "id": 1486844822, "highway": null }, "geometry": { "type": "Point", "coordinates": [ 72.800623399024317, 21.187534650810505 ] } },
{ "type": "Feature", "properties": { "element": "way", "id": 1486844823, "highway": null }, "geometry": { "type": "Point", "coordinates": [ 72.792305507496621, 21.186225920500672 ] } },
{ "type": "Feature", "properties": { "element": "way", "id": 1486844828, "highway": null }, "geometry": { "type": "Point", "coordinates": [ 72.792331750990485, 21.186270851001993 ] } },
{ "type": "Feature", "properties": { "element": "way", "id": 1486844829, "highway": null }, "geometry": { "type": "Point", "coordinates": [ 72.79228030098551, 21.186183801004667 ] } },
{ "type": "Feature", "properties": { "element": "way", "id": 1486852405, "highway": null }, "geometry": { "type": "Point", "coordinates": [ 72.789027955056781, 21.190122092470652 ] } },
{ "type": "Feature", "properties": { "element": "way", "id": 1486852410, "highway": null }, "geometry": { "type": "Point", "coordinates": [ 72.788965251169074, 21.190088250419581 ] } },
{ "type": "Feature", "properties": { "element": "way", "id": 1486852411, "highway": null }, "geometry": { "type": "Point", "coordinates": [ 72.789088351162832, 21.190155000412567 ] } },
{ "type": "Feature", "properties": { "element": "way", "id": 1486852416, "highway": null }, "geometry": { "type": "Point", "coordinates": [ 72.785795464541252, 21.195305957844674 ] } },
{ "type": "Feature", "properties": { "element": "way", "id": 1486852417, "highway": null }, "geometry": { "type": "Point", "coordinates": [ 72.785749151347687, 21.195279200502927 ] } },
{ "type": "Feature", "properties": { "element": "way", "id": 1486852418, "highway": null }, "geometry": { "type": "Point", "coordinates": [ 72.785844251345239, 21.195333850499765 ] } },
{ "type": "Feature", "properties": { "element": "way", "id": 1486852419, "highway": null }, "geometry": { "type": "Point", "coordinates": [ 72.782812135779452, 21.199731499384125 ] } },
{ "type": "Feature", "properties": { "element": "way", "id": 1486857560, "highway": null }, "geometry": { "type": "Point", "coordinates": [ 72.782743951237634, 21.199687900507445 ] } },
{ "type": "Feature", "properties": { "element": "way", "id": 1486857561, "highway": null }, "geometry": { "type": "Point", "coordinates": [ 72.782879951234918, 21.199775050502911 ] } },
{ "type": "Feature", "properties": { "element": "way", "id": 1486857566, "highway": null }, "geometry": { "type": "Point", "coordinates": [ 72.782595047796306, 21.208756958580825 ] } },
{ "type": "Feature", "properties": { "element": "way", "id": 1486857567, "highway": null }, "geometry": { "type": "Point", "coordinates": [ 72.782648700291119, 21.208763550044427 ] } },
{ "type": "Feature", "properties": { "element": "way", "id": 1486857568, "highway": null }, "geometry": { "type": "Point", "coordinates": [ 72.782540700276456, 21.20875060004137 ] } },
{ "type": "Feature", "properties": { "element": "way", "id": 1486865534, "highway": null }, "geometry": { "type": "Point", "coordinates": [ 72.876934884557343, 21.219593964486933 ] } },
{ "type": "Feature", "properties": { "element": "way", "id": 1486865539, "highway": null }, "geometry": { "type": "Point", "coordinates": [ 72.876921098911964, 21.21964745120113 ] } },
{ "type": "Feature", "properties": { "element": "way", "id": 1486865540, "highway": null }, "geometry": { "type": "Point", "coordinates": [ 72.8769627489025, 21.219538601198209 ] } },
{ "type": "Feature", "properties": { "element": "way", "id": 1486874244, "highway": null }, "geometry": { "type": "Point", "coordinates": [ 72.797924791002288, 21.111187631658581 ] } },
{ "type": "Feature", "properties": { "element": "way", "id": 1486874245, "highway": null }, "geometry": { "type": "Point", "coordinates": [ 72.797983100174378, 21.111188400025902 ] } },
{ "type": "Feature", "properties": { "element": "way", "id": 1486874246, "highway": null }, "geometry": { "type": "Point", "coordinates": [ 72.797867800180015, 21.111186600026475 ] } },
{ "type": "Feature", "properties": { "element": "way", "id": 1486885702, "highway": null }, "geometry": { "type": "Point", "coordinates": [ 72.894218804189592, 21.226891880338766 ] } },
{ "type": "Feature", "properties": { "element": "way", "id": 1486885703, "highway": null }, "geometry": { "type": "Point", "coordinates": [ 72.894264498720489, 21.226864000317342 ] } },
{ "type": "Feature", "properties": { "element": "way", "id": 1486885704, "highway": null }, "geometry": { "type": "Point", "coordinates": [ 72.894169648723476, 21.226921600314832 ] } },
{ "type": "Feature", "properties": { "element": "way", "id": 1486885709, "highway": null }, "geometry": { "type": "Point", "coordinates": [ 72.903120728098727, 21.231592413068057 ] } },
{ "type": "Feature", "properties": { "element": "way", "id": 1486885710, "highway": null }, "geometry": { "type": "Point", "coordinates": [ 72.903155748536776, 21.23155105075341 ] } },
{ "type": "Feature", "properties": { "element": "way", "id": 1486885711, "highway": null }, "geometry": { "type": "Point", "coordinates": [ 72.903084698537, 21.231635550753907 ] } },
{ "type": "Feature", "properties": { "element": "way", "id": 1486885712, "highway": null }, "geometry": { "type": "Point", "coordinates": [ 72.909693299729341, 21.237051055147809 ] } },
{ "type": "Feature", "properties": { "element": "way", "id": 1486892579, "highway": null }, "geometry": { "type": "Point", "coordinates": [ 72.781174720550567, 21.218597124457816 ] } },
{ "type": "Feature", "properties": { "element": "way", "id": 1486892580, "highway": null }, "geometry": { "type": "Point", "coordinates": [ 72.7812334001989, 21.218598250028169 ] } },
{ "type": "Feature", "properties": { "element": "way", "id": 1486892581, "highway": null }, "geometry": { "type": "Point", "coordinates": [ 72.781116750207573, 21.218595700029127 ] } },
{ "type": "Feature", "properties": { "element": "way", "id": 1486892586, "highway": null }, "geometry": { "type": "Point", "coordinates": [ 72.776940261569067, 21.221450460194642 ] } },
{ "type": "Feature", "properties": { "element": "way", "id": 1486892587, "highway": null }, "geometry": { "type": "Point", "coordinates": [ 72.776930449381638, 21.221502601301292 ] } },
{ "type": "Feature", "properties": { "element": "way", "id": 1486892588, "highway": null }, "geometry": { "type": "Point", "coordinates": [ 72.776949649381208, 21.221398201301252 ] } },
{ "type": "Feature", "properties": { "element": "way", "id": 1486898524, "highway": null }, "geometry": { "type": "Point", "coordinates": [ 72.769007401261121, 21.219722311936135 ] } },
{ "type": "Feature", "properties": { "element": "way", "id": 1486898525, "highway": null }, "geometry": { "type": "Point", "coordinates": [ 72.769024499080956, 21.219671001175389 ] } },
{ "type": "Feature", "properties": { "element": "way", "id": 1486898526, "highway": null }, "geometry": { "type": "Point", "coordinates": [ 72.768992299066753, 21.219768951169147 ] } },
{ "type": "Feature", "properties": { "element": "way", "id": 1487150729, "highway": null }, "geometry": { "type": "Point", "coordinates": [ 72.955691141040731, 21.157486683091335 ] } },
{ "type": "Feature", "properties": { "element": "way", "id": 1487150730, "highway": null }, "geometry": { "type": "Point", "coordinates": [ 72.955694344403597, 21.157715018186302 ] } },
{ "type": "Feature", "properties": { "element": "way", "id": 1487150731, "highway": null }, "geometry": { "type": "Point", "coordinates": [ 72.956295319428691, 21.157274826622171 ] } },
{ "type": "Feature", "properties": { "element": "way", "id": 1487254693, "highway": null }, "geometry": { "type": "Point", "coordinates": [ 72.849237027356224, 21.185255145826879 ] } },
{ "type": "Feature", "properties": { "element": "way", "id": 1487254694, "highway": null }, "geometry": { "type": "Point", "coordinates": [ 72.849217100870618, 21.185205401272651 ] } },
{ "type": "Feature", "properties": { "element": "way", "id": 1487254695, "highway": null }, "geometry": { "type": "Point", "coordinates": [ 72.849257550854219, 21.185305151277451 ] } },
{ "type": "Feature", "properties": { "element": "way", "id": 1487264814, "highway": null }, "geometry": { "type": "Point", "coordinates": [ 72.868577728094891, 21.190214490743099 ] } },
{ "type": "Feature", "properties": { "element": "way", "id": 1487264815, "highway": null }, "geometry": { "type": "Point", "coordinates": [ 72.868582499638549, 21.190162001313571 ] } },
{ "type": "Feature", "properties": { "element": "way", "id": 1487264816, "highway": null }, "geometry": { "type": "Point", "coordinates": [ 72.868572849639648, 21.190271751313862 ] } },
{ "type": "Feature", "properties": { "element": "way", "id": 1487264821, "highway": null }, "geometry": { "type": "Point", "coordinates": [ 72.879648658282861, 21.189721103600473 ] } },
{ "type": "Feature", "properties": { "element": "way", "id": 1487264822, "highway": null }, "geometry": { "type": "Point", "coordinates": [ 72.8796399502599, 21.189657001399478 ] } },
{ "type": "Feature", "properties": { "element": "way", "id": 1487264823, "highway": null }, "geometry": { "type": "Point", "coordinates": [ 72.87965660024517, 21.189779401400056 ] } },
{ "type": "Feature", "properties": { "element": "way", "id": 1487264832, "highway": null }, "geometry": { "type": "Point", "coordinates": [ 72.892984305838226, 21.189026045920116 ] } },
{ "type": "Feature", "properties": { "element": "way", "id": 1487264833, "highway": null }, "geometry": { "type": "Point", "coordinates": [ 72.893007200799985, 21.189089001345078 ] } },
{ "type": "Feature", "properties": { "element": "way", "id": 1487264834, "highway": null }, "geometry": { "type": "Point", "coordinates": [ 72.892962300803518, 21.188964751344216 ] } },
{ "type": "Feature", "properties": { "element": "way", "id": 1487589148, "highway": null }, "geometry": { "type": "Point", "coordinates": [ 72.799379203149627, 21.12211420877955 ] } },
{ "type": "Feature", "properties": { "element": "way", "id": 1487589149, "highway": null }, "geometry": { "type": "Point", "coordinates": [ 72.799437399277863, 21.122096900071931 ] } },
{ "type": "Feature", "properties": { "element": "way", "id": 1487589150, "highway": null }, "geometry": { "type": "Point", "coordinates": [ 72.799322449268843, 21.12213125007402 ] } },
{ "type": "Feature", "properties": { "element": "way", "id": 1487589154, "highway": null }, "geometry": { "type": "Point", "coordinates": [ 72.79817655202136, 21.12873730613008 ] } },
{ "type": "Feature", "properties": { "element": "way", "id": 1487589155, "highway": null }, "geometry": { "type": "Point", "coordinates": [ 72.798238900198214, 21.128738700028229 ] } },
{ "type": "Feature", "properties": { "element": "way", "id": 1487589156, "highway": null }, "geometry": { "type": "Point", "coordinates": [ 72.798116600202462, 21.128736200028694 ] } },
{ "type": "Feature", "properties": { "element": "way", "id": 1487593937, "highway": null }, "geometry": { "type": "Point", "coordinates": [ 72.800879490769077, 21.13598364987806 ] } },
{ "type": "Feature", "properties": { "element": "way", "id": 1487593941, "highway": null }, "geometry": { "type": "Point", "coordinates": [ 72.800929649053444, 21.135963950133156 ] } },
{ "type": "Feature", "properties": { "element": "way", "id": 1487593942, "highway": null }, "geometry": { "type": "Point", "coordinates": [ 72.80083329905284, 21.136001450133332 ] } },
{ "type": "Feature", "properties": { "element": "way", "id": 1487596774, "highway": null }, "geometry": { "type": "Point", "coordinates": [ 72.805053245627562, 21.145212705214139 ] } },
{ "type": "Feature", "properties": { "element": "way", "id": 1487596775, "highway": null }, "geometry": { "type": "Point", "coordinates": [ 72.805108849081648, 21.145191400126524 ] } },
{ "type": "Feature", "properties": { "element": "way", "id": 1487596776, "highway": null }, "geometry": { "type": "Point", "coordinates": [ 72.804997899078231, 21.145234150127671 ] } },
{ "type": "Feature", "properties": { "element": "way", "id": 1487643144, "highway": null }, "geometry": { "type": "Point", "coordinates": [ 72.807941142967579, 21.152603879245998 ] } },
{ "type": "Feature", "properties": { "element": "way", "id": 1487643145, "highway": null }, "geometry": { "type": "Point", "coordinates": [ 72.80798994887418, 21.152580250209866 ] } },
{ "type": "Feature", "properties": { "element": "way", "id": 1487643146, "highway": null }, "geometry": { "type": "Point", "coordinates": [ 72.80789119887632, 21.152628500208831 ] } },
{ "type": "Feature", "properties": { "element": "way", "id": 1487643151, "highway": null }, "geometry": { "type": "Point", "coordinates": [ 72.811686746621604, 21.161960664263432 ] } },
{ "type": "Feature", "properties": { "element": "way", "id": 1487643152, "highway": null }, "geometry": { "type": "Point", "coordinates": [ 72.811739249017847, 21.161939300147278 ] } },
{ "type": "Feature", "properties": { "element": "way", "id": 1487643153, "highway": null }, "geometry": { "type": "Point", "coordinates": [ 72.811634249022703, 21.161982300145436 ] } },
{ "type": "Feature", "properties": { "element": "way", "id": 1487697844, "highway": null }, "geometry": { "type": "Point", "coordinates": [ 72.815826344869905, 21.170839810936542 ] } },
{ "type": "Feature", "properties": { "element": "way", "id": 1487697845, "highway": null }, "geometry": { "type": "Point", "coordinates": [ 72.815884486096067, 21.170824505331339 ] } },
{ "type": "Feature", "properties": { "element": "way", "id": 1487697846, "highway": null }, "geometry": { "type": "Point", "coordinates": [ 72.815787899035058, 21.170860150142492 ] } },
{ "type": "Feature", "properties": { "element": "way", "id": 1487697847, "highway": null }, "geometry": { "type": "Point", "coordinates": [ 72.816355796323194, 21.170985527027714 ] } },
{ "type": "Feature", "properties": { "element": "way", "id": 1487708298, "highway": null }, "geometry": { "type": "Point", "coordinates": [ 72.818625604911645, 21.181921452211217 ] } },
{ "type": "Feature", "properties": { "element": "way", "id": 1487708299, "highway": null }, "geometry": { "type": "Point", "coordinates": [ 72.818689749672302, 21.181911800016593 ] } },
{ "type": "Feature", "properties": { "element": "way", "id": 1487708300, "highway": null }, "geometry": { "type": "Point", "coordinates": [ 72.81856684967444, 21.181929950016457 ] } },
{ "type": "Feature", "properties": { "element": "way", "id": 1487708305, "highway": null }, "geometry": { "type": "Point", "coordinates": [ 72.819340001308206, 21.187055555017114 ] } },
{ "type": "Feature", "properties": { "element": "way", "id": 1487708306, "highway": null }, "geometry": { "type": "Point", "coordinates": [ 72.819386600869635, 21.187067800185339 ] } },
{ "type": "Feature", "properties": { "element": "way", "id": 1487708307, "highway": null }, "geometry": { "type": "Point", "coordinates": [ 72.819294400859945, 21.187043900181596 ] } },
{ "type": "Feature", "properties": { "element": "way", "id": 1487995446, "highway": null }, "geometry": { "type": "Point", "coordinates": [ 72.863259918824312, 21.233176385607511 ] } },
{ "type": "Feature", "properties": { "element": "way", "id": 1487995454, "highway": null }, "geometry": { "type": "Point", "coordinates": [ 72.866310142022968, 21.230399499986913 ] } },
{ "type": "Feature", "properties": { "element": "way", "id": 1488018133, "highway": null }, "geometry": { "type": "Point", "coordinates": [ 72.867723823117302, 21.261098963112907 ] } },
{ "type": "Feature", "properties": { "element": "way", "id": 1509477325, "highway": null }, "geometry": { "type": "Point", "coordinates": [ 72.879416026800214, 21.290943843241131 ] } },
{ "type": "Feature", "properties": { "element": "way", "id": 1509477326, "highway": null }, "geometry": { "type": "Point", "coordinates": [ 72.879240144835435, 21.290898567446384 ] } },
{ "type": "Feature", "properties": { "element": "way", "id": 1530442787, "highway": null }, "geometry": { "type": "Point", "coordinates": [ 72.851860213453648, 21.170662791077646 ] } },
{ "type": "Feature", "properties": { "element": "way", "id": 1530442865, "highway": null }, "geometry": { "type": "Point", "coordinates": [ 72.851488413453822, 21.170517491077987 ] } }
]
}
