{
  "type": "FeatureCollection",
  "features": [
    {
      "type": "Feature",
      "geometry": {
        "type": "Polygon",
        "coordinates": [
          [
            [
              70.91871450317885,
              22.3039
            ],
            [
              70.9181534539994,
              22.314537656542957
            ],
            [
              70.9164757096713,
              22.32507286663827
            ],
            [
              70.91369742778964,
              22.33540417045359
            ],
            [
              70.90984536472766,
              22.34543207188551
            ],
            [
              70.9049566179584,
              22.355059996761433
            ],
            [
              70.89907826878574,
              22.364195222901646
            ],
            [
              70.89226692892562,
              22.372749773084596
            ],
            [
              70.88458819530435,
              22.380641262315624
            ],
            [
              70.87611601832432,
              22.387793691239512
            ],
            [
              70.86693198968123,
              22.394138178055805
            ],
            [
              70.85712455659142,
              22.399613621888218
            ],
            [
              70.8467881699968,
              22.404167291219455
            ],
            [
              70.83602237495073,
              22.407755331724577
            ],
            [
              70.82493085194471,
              22.41034318861209
            ],
            [
              70.8136204184085,
              22.4119059394055
            ],
            [
              70.8022,
              22.412428533960387
            ],
            [
              70.7907795815915,
              22.4119059394055
            ],
            [
              70.77946914805528,
              22.41034318861209
            ],
            [
              70.76837762504927,
              22.407755331724577
            ],
            [
              70.7576118300032,
              22.404167291219455
            ],
            [
              70.74727544340858,
              22.399613621888218
            ],
            [
              70.73746801031876,
              22.394138178055805
            ],
            [
              70.72828398167567,
              22.387793691239512
            ],
            [
              70.71981180469565,
              22.380641262315624
            ],
            [
              70.71213307107438,
              22.372749773084596
            ],
            [
              70.70532173121426,
              22.364195222901646
            ],
            [
              70.6994433820416,
              22.355059996761433
            ],
            [
              70.69455463527234,
              22.34543207188551
            ],
            [
              70.69070257221036,
              22.33540417045359
            ],
            [
              70.6879242903287,
              22.32507286663827
            ],
            [
              70.6862465460006,
              22.314537656542957
            ],
            [
              70.68568549682115,
              22.3039
            ],
            [
              70.6862465460006,
              22.29326234345704
            ],
            [
              70.6879242903287,
              22.28272713336173
            ],
            [
              70.69070257221036,
              22.272395829546408
            ],
            [
              70.69455463527234,
              22.262367928114486
            ],
            [
              70.6994433820416,
              22.252740003238564
            ],
            [
              70.70532173121426,
              22.24360477709835
            ],
            [
              70.71213307107438,
              22.2350502269154
            ],
            [
              70.71981180469565,
              22.227158737684373
            ],
            [
              70.72828398167567,
              22.220006308760485
            ],
            [
              70.73746801031876,
              22.213661821944193
            ],
            [
              70.74727544340858,
              22.20818637811178
            ],
            [
              70.7576118300032,
              22.203632708780543
            ],
            [
              70.76837762504927,
              22.20004466827542
            ],
            [
              70.77946914805528,
              22.19745681138791
            ],
            [
              70.7907795815915,
              22.195894060594497
            ],
            [
              70.8022,
              22.19537146603961
            ],
            [
              70.8136204184085,
              22.195894060594497
            ],
            [
              70.82493085194471,
              22.19745681138791
            ],
            [
              70.83602237495073,
              22.20004466827542
            ],
            [
              70.8467881699968,
              22.203632708780543
            ],
            [
              70.85712455659142,
              22.20818637811178
            ],
            [
              70.86693198968123,
              22.213661821944193
            ],
            [
              70.87611601832432,
              22.220006308760485
            ],
            [
              70.88458819530435,
              22.227158737684373
            ],
            [
              70.89226692892562,
              22.2350502269154
            ],
            [
              70.89907826878574,
              22.24360477709835
            ],
            [
              70.9049566179584,
              22.252740003238564
            ],
            [
              70.90984536472766,
              22.262367928114486
            ],
            [
              70.91369742778964,
              22.272395829546408
            ],
            [
              70.9164757096713,
              22.28272713336173
            ],
            [
              70.9181534539994,
              22.29326234345704
            ],
            [
              70.91871450317885,
              22.3039
            ]
          ]
        ]
      },
      "properties": {
        "city_id": "rajkot",
        "city_name": "Rajkot",
        "radius_km": 12.0,
        "center": [
          70.8022,
          22.3039
        ],
        "area_km2": 452.39
      }
    }
  ]
}