{
  "type": "FeatureCollection",
  "features": [
    {
      "type": "Feature",
      "geometry": {
        "type": "Polygon",
        "coordinates": [
          [
            [
              72.74220917724104,
              23.0225
            ],
            [
              72.74138668436572,
              23.038013249125147
            ],
            [
              72.7389271267958,
              23.05337709718081
            ],
            [
              72.73485419141518,
              23.068443581911488
            ],
            [
              72.72920710281808,
              23.08306760483304
            ],
            [
              72.72204024555472,
              23.097108328610428
            ],
            [
              72.71342264037833,
              23.110430533398237
            ],
            [
              72.70343727953761,
              23.122905919081703
            ],
            [
              72.69218032751603,
              23.13441434087695
            ],
            [
              72.67976019491523,
              23.144844966390956
            ],
            [
              72.66629649440169,
              23.154097342998053
            ],
            [
              72.65191888877136,
              23.162082365253653
            ],
            [
              72.63676584222605,
              23.168723133028376
            ],
            [
              72.62098328688751,
              23.173955692098342
            ],
            [
              72.60472321739127,
              23.177729650059298
            ],
            [
              72.5881422270952,
              23.180008661633025
            ],
            [
              72.5714,
              23.18077077869223
            ],
            [
              72.55465777290479,
              23.180008661633025
            ],
            [
              72.53807678260873,
              23.177729650059298
            ],
            [
              72.52181671311249,
              23.173955692098342
            ],
            [
              72.50603415777394,
              23.168723133028376
            ],
            [
              72.49088111122863,
              23.162082365253653
            ],
            [
              72.4765035055983,
              23.154097342998053
            ],
            [
              72.46303980508476,
              23.144844966390956
            ],
            [
              72.45061967248397,
              23.13441434087695
            ],
            [
              72.43936272046238,
              23.122905919081703
            ],
            [
              72.42937735962167,
              23.110430533398237
            ],
            [
              72.42075975444527,
              23.097108328610428
            ],
            [
              72.41359289718191,
              23.08306760483304
            ],
            [
              72.40794580858481,
              23.068443581911488
            ],
            [
              72.4038728732042,
              23.05337709718081
            ],
            [
              72.40141331563427,
              23.038013249125147
            ],
            [
              72.40059082275896,
              23.0225
            ],
            [
              72.40141331563427,
              23.006986750874855
            ],
            [
              72.4038728732042,
              22.99162290281919
            ],
            [
              72.40794580858481,
              22.976556418088514
            ],
            [
              72.41359289718191,
              22.96193239516696
            ],
            [
              72.42075975444527,
              22.947891671389574
            ],
            [
              72.42937735962167,
              22.934569466601765
            ],
            [
              72.43936272046238,
              22.9220940809183
            ],
            [
              72.45061967248397,
              22.91058565912305
            ],
            [
              72.46303980508476,
              22.900155033609046
            ],
            [
              72.4765035055983,
              22.89090265700195
            ],
            [
              72.49088111122863,
              22.88291763474635
            ],
            [
              72.50603415777394,
              22.876276866971626
            ],
            [
              72.52181671311249,
              22.87104430790166
            ],
            [
              72.53807678260873,
              22.867270349940704
            ],
            [
              72.55465777290479,
              22.864991338366977
            ],
            [
              72.5714,
              22.86422922130777
            ],
            [
              72.5881422270952,
              22.864991338366977
            ],
            [
              72.60472321739127,
              22.867270349940704
            ],
            [
              72.62098328688751,
              22.87104430790166
            ],
            [
              72.63676584222605,
              22.876276866971626
            ],
            [
              72.65191888877136,
              22.88291763474635
            ],
            [
              72.66629649440169,
              22.89090265700195
            ],
            [
              72.67976019491523,
              22.900155033609046
            ],
            [
              72.69218032751603,
              22.91058565912305
            ],
            [
              72.70343727953761,
              22.9220940809183
            ],
            [
              72.71342264037833,
              22.934569466601765
            ],
            [
              72.72204024555472,
              22.947891671389574
            ],
            [
              72.72920710281808,
              22.96193239516696
            ],
            [
              72.73485419141518,
              22.976556418088514
            ],
            [
              72.7389271267958,
              22.99162290281919
            ],
            [
              72.74138668436572,
              23.006986750874855
            ],
            [
              72.74220917724104,
              23.0225
            ]
          ]
        ]
      },
      "properties": {
        "city_id": "ahmedabad",
        "city_name": "Ahmedabad",
        "radius_km": 17.5,
        "center": [
          72.5714,
          23.0225
        ],
        "area_km2": 962.11
      }
    }
  ]
}