{
  "type": "FeatureCollection",
  "features": [
    {
      "type": "Feature",
      "geometry": {
        "type": "Polygon",
        "coordinates": [
          [
            [
              73.31228191328287,
              22.3072
            ],
            [
              73.31165071804207,
              22.319167363610827
            ],
            [
              73.30976321107492,
              22.331019474968056
            ],
            [
              73.30663757010532,
              22.34264219176029
            ],
            [
              73.30230389676446,
              22.353923580871204
            ],
            [
              73.29680392669563,
              22.364754996356616
            ],
            [
              73.29019062761718,
              22.375032125764356
            ],
            [
              73.28252768921445,
              22.384655994720173
            ],
            [
              73.27388890977322,
              22.393533920105078
            ],
            [
              73.26435748546197,
              22.401580402644452
            ],
            [
              73.25402520910723,
              22.408717950312784
            ],
            [
              73.24299158617845,
              22.41487782462425
            ],
            [
              73.23136287649608,
              22.42000070262189
            ],
            [
              73.21925107089122,
              22.42403724819015
            ],
            [
              73.20677281267285,
              22.4269485871886
            ],
            [
              73.19404827428892,
              22.42870668183119
            ],
            [
              73.1812,
              22.429294600705436
            ],
            [
              73.16835172571109,
              22.42870668183119
            ],
            [
              73.15562718732716,
              22.4269485871886
            ],
            [
              73.14314892910879,
              22.42403724819015
            ],
            [
              73.13103712350393,
              22.42000070262189
            ],
            [
              73.11940841382156,
              22.41487782462425
            ],
            [
              73.10837479089278,
              22.408717950312784
            ],
            [
              73.09804251453804,
              22.401580402644452
            ],
            [
              73.08851109022679,
              22.393533920105078
            ],
            [
              73.07987231078556,
              22.384655994720173
            ],
            [
              73.07220937238283,
              22.375032125764356
            ],
            [
              73.06559607330438,
              22.364754996356616
            ],
            [
              73.06009610323555,
              22.353923580871204
            ],
            [
              73.05576242989468,
              22.34264219176029
            ],
            [
              73.05263678892508,
              22.331019474968056
            ],
            [
              73.05074928195793,
              22.319167363610827
            ],
            [
              73.05011808671713,
              22.3072
            ],
            [
              73.05074928195793,
              22.295232636389176
            ],
            [
              73.05263678892508,
              22.283380525031948
            ],
            [
              73.05576242989468,
              22.271757808239713
            ],
            [
              73.06009610323555,
              22.2604764191288
            ],
            [
              73.06559607330438,
              22.249645003643387
            ],
            [
              73.07220937238283,
              22.239367874235647
            ],
            [
              73.07987231078556,
              22.22974400527983
            ],
            [
              73.08851109022679,
              22.220866079894925
            ],
            [
              73.09804251453804,
              22.21281959735555
            ],
            [
              73.10837479089278,
              22.20568204968722
            ],
            [
              73.11940841382156,
              22.199522175375755
            ],
            [
              73.13103712350393,
              22.194399297378112
            ],
            [
              73.14314892910879,
              22.190362751809854
            ],
            [
              73.15562718732716,
              22.187451412811402
            ],
            [
              73.16835172571109,
              22.185693318168813
            ],
            [
              73.1812,
              22.185105399294567
            ],
            [
              73.19404827428892,
              22.185693318168813
            ],
            [
              73.20677281267285,
              22.187451412811402
            ],
            [
              73.21925107089122,
              22.190362751809854
            ],
            [
              73.23136287649608,
              22.194399297378112
            ],
            [
              73.24299158617845,
              22.199522175375755
            ],
            [
              73.25402520910723,
              22.20568204968722
            ],
            [
              73.26435748546197,
              22.21281959735555
            ],
            [
              73.27388890977322,
              22.220866079894925
            ],
            [
              73.28252768921445,
              22.22974400527983
            ],
            [
              73.29019062761718,
              22.239367874235647
            ],
            [
              73.29680392669563,
              22.249645003643387
            ],
            [
              73.30230389676446,
              22.2604764191288
            ],
            [
              73.30663757010532,
              22.271757808239713
            ],
            [
              73.30976321107492,
              22.283380525031948
            ],
            [
              73.31165071804207,
              22.295232636389176
            ],
            [
              73.31228191328287,
              22.3072
            ]
          ]
        ]
      },
      "properties": {
        "city_id": "vadodara",
        "city_name": "Vadodara",
        "radius_km": 13.5,
        "center": [
          73.1812,
          22.3072
        ],
        "area_km2": 572.56
      }
    }
  ]
}