{
"type": "FeatureCollection",
"name": "transit",
"crs": { "type": "name", "properties": { "name": "urn:ogc:def:crs:OGC:1.3:CRS84" } },
"features": [
{ "type": "Feature", "properties": { "element": "node", "id": 5734380272, "highway": null }, "geometry": { "type": "Point", "coordinates": [ 70.7930957, 22.281768 ] } },
{ "type": "Feature", "properties": { "element": "node", "id": 5745061911, "highway": null }, "geometry": { "type": "Point", "coordinates": [ 70.830995, 22.3824406 ] } },
{ "type": "Feature", "properties": { "element": "node", "id": 5773700367, "highway": null }, "geometry": { "type": "Point", "coordinates": [ 70.7172894, 22.3615969 ] } },
{ "type": "Feature", "properties": { "element": "node", "id": 7503407863, "highway": "bus_stop" }, "geometry": { "type": "Point", "coordinates": [ 70.7697932, 22.2947223 ] } },
{ "type": "Feature", "properties": { "element": "node", "id": 8366329617, "highway": "bus_stop" }, "geometry": { "type": "Point", "coordinates": [ 70.7824376, 22.2679684 ] } },
{ "type": "Feature", "properties": { "element": "node", "id": 8366360896, "highway": "bus_stop" }, "geometry": { "type": "Point", "coordinates": [ 70.7815166, 22.2547938 ] } },
{ "type": "Feature", "properties": { "element": "node", "id": 12101697386, "highway": "bus_stop" }, "geometry": { "type": "Point", "coordinates": [ 70.8080827, 22.3461987 ] } },
{ "type": "Feature", "properties": { "element": "node", "id": 12101715857, "highway": null }, "geometry": { "type": "Point", "coordinates": [ 70.80255, 22.3124309 ] } },
{ "type": "Feature", "properties": { "element": "node", "id": 12101762960, "highway": "bus_stop" }, "geometry": { "type": "Point", "coordinates": [ 70.7864731, 22.317397 ] } },
{ "type": "Feature", "properties": { "element": "node", "id": 12101765588, "highway": "bus_stop" }, "geometry": { "type": "Point", "coordinates": [ 70.7851502, 22.2984855 ] } },
{ "type": "Feature", "properties": { "element": "node", "id": 12101765682, "highway": "bus_stop" }, "geometry": { "type": "Point", "coordinates": [ 70.7554304, 22.300347599999988 ] } },
{ "type": "Feature", "properties": { "element": "node", "id": 12101774110, "highway": "bus_stop" }, "geometry": { "type": "Point", "coordinates": [ 70.7585779, 22.2946257 ] } },
{ "type": "Feature", "properties": { "element": "node", "id": 12101784643, "highway": "bus_stop" }, "geometry": { "type": "Point", "coordinates": [ 70.7488029, 22.2662337 ] } },
{ "type": "Feature", "properties": { "element": "node", "id": 12101804103, "highway": "bus_stop" }, "geometry": { "type": "Point", "coordinates": [ 70.8287371, 22.3118878 ] } },
{ "type": "Feature", "properties": { "element": "node", "id": 12101806009, "highway": "bus_stop" }, "geometry": { "type": "Point", "coordinates": [ 70.817701, 22.2439832 ] } },
{ "type": "Feature", "properties": { "element": "node", "id": 12101847762, "highway": "bus_stop" }, "geometry": { "type": "Point", "coordinates": [ 70.79082, 22.2514379 ] } },
{ "type": "Feature", "properties": { "element": "node", "id": 12101852211, "highway": "bus_stop" }, "geometry": { "type": "Point", "coordinates": [ 70.7816299, 22.2608207 ] } },
{ "type": "Feature", "properties": { "element": "node", "id": 12102043451, "highway": "bus_stop" }, "geometry": { "type": "Point", "coordinates": [ 70.8146766, 22.2628325 ] } },
{ "type": "Feature", "properties": { "element": "node", "id": 12102048867, "highway": "bus_stop" }, "geometry": { "type": "Point", "coordinates": [ 70.801853, 22.224546 ] } },
{ "type": "Feature", "properties": { "element": "node", "id": 13395220537, "highway": "bus_stop" }, "geometry": { "type": "Point", "coordinates": [ 70.7831857, 22.2555127 ] } },
{ "type": "Feature", "properties": { "element": "node", "id": 13395231163, "highway": "bus_stop" }, "geometry": { "type": "Point", "coordinates": [ 70.7886364, 22.2549527 ] } },
{ "type": "Feature", "properties": { "element": "way", "id": 604295536, "highway": null }, "geometry": { "type": "Point", "coordinates": [ 70.792321906799046, 22.282521494040324 ] } },
{ "type": "Feature", "properties": { "element": "way", "id": 604295539, "highway": null }, "geometry": { "type": "Point", "coordinates": [ 70.792105781438693, 22.282386945692334 ] } },
{ "type": "Feature", "properties": { "element": "way", "id": 605818590, "highway": null }, "geometry": { "type": "Point", "coordinates": [ 70.830844263777465, 22.382630450166236 ] } },
{ "type": "Feature", "properties": { "element": "way", "id": 609570687, "highway": null }, "geometry": { "type": "Point", "coordinates": [ 70.715868828128663, 22.362361210177781 ] } },
{ "type": "Feature", "properties": { "element": "way", "id": 609570688, "highway": null }, "geometry": { "type": "Point", "coordinates": [ 70.716141168586148, 22.362744694909136 ] } },
{ "type": "Feature", "properties": { "element": "way", "id": 1177943054, "highway": null }, "geometry": { "type": "Point", "coordinates": [ 70.80259187329294, 22.313281208743796 ] } },
{ "type": "Feature", "properties": { "element": "way", "id": 1177943055, "highway": null }, "geometry": { "type": "Point", "coordinates": [ 70.802120497276235, 22.31384963942061 ] } }
]
}
