{
"type": "FeatureCollection",
"name": "transit",
"crs": { "type": "name", "properties": { "name": "urn:ogc:def:crs:OGC:1.3:CRS84" } },
"features": [
{ "type": "Feature", "properties": { "element": "node", "id": 322770856, "highway": null }, "geometry": { "type": "Point", "coordinates": [ 72.6580946, 23.0854097 ] } },
{ "type": "Feature", "properties": { "element": "node", "id": 322983346, "highway": null }, "geometry": { "type": "Point", "coordinates": [ 72.5174367, 23.0079064 ] } },
{ "type": "Feature", "properties": { "element": "node", "id": 323120091, "highway": null }, "geometry": { "type": "Point", "coordinates": [ 72.6114013, 22.9986596 ] } },
{ "type": "Feature", "properties": { "element": "node", "id": 323189766, "highway": null }, "geometry": { "type": "Point", "coordinates": [ 72.5890677, 23.0770712 ] } },
{ "type": "Feature", "properties": { "element": "node", "id": 566222693, "highway": null }, "geometry": { "type": "Point", "coordinates": [ 72.6132157, 23.0440925 ] } },
{ "type": "Feature", "properties": { "element": "node", "id": 566223451, "highway": null }, "geometry": { "type": "Point", "coordinates": [ 72.6424393, 23.0715012 ] } },
{ "type": "Feature", "properties": { "element": "node", "id": 611572689, "highway": "bus_stop" }, "geometry": { "type": "Point", "coordinates": [ 72.5883112, 23.0987428 ] } },
{ "type": "Feature", "properties": { "element": "node", "id": 611572692, "highway": "bus_stop" }, "geometry": { "type": "Point", "coordinates": [ 72.5951643, 23.0945534 ] } },
{ "type": "Feature", "properties": { "element": "node", "id": 611572694, "highway": "bus_stop" }, "geometry": { "type": "Point", "coordinates": [ 72.584599, 23.1104959 ] } },
{ "type": "Feature", "properties": { "element": "node", "id": 611572695, "highway": "bus_stop" }, "geometry": { "type": "Point", "coordinates": [ 72.5832285, 23.1151091 ] } },
{ "type": "Feature", "properties": { "element": "node", "id": 611572696, "highway": "bus_stop" }, "geometry": { "type": "Point", "coordinates": [ 72.5856397, 23.1071309 ] } },
{ "type": "Feature", "properties": { "element": "node", "id": 611572697, "highway": "bus_stop" }, "geometry": { "type": "Point", "coordinates": [ 72.5867663, 23.1036376 ] } },
{ "type": "Feature", "properties": { "element": "node", "id": 611573336, "highway": "bus_stop" }, "geometry": { "type": "Point", "coordinates": [ 72.5884185, 23.0563204 ] } },
{ "type": "Feature", "properties": { "element": "node", "id": 611573340, "highway": "bus_stop" }, "geometry": { "type": "Point", "coordinates": [ 72.583719300000013, 23.0655502 ] } },
{ "type": "Feature", "properties": { "element": "node", "id": 611573343, "highway": "bus_stop" }, "geometry": { "type": "Point", "coordinates": [ 72.5808869, 23.0684819 ] } },
{ "type": "Feature", "properties": { "element": "node", "id": 611573366, "highway": "bus_stop" }, "geometry": { "type": "Point", "coordinates": [ 72.5904999, 23.0527171 ] } },
{ "type": "Feature", "properties": { "element": "node", "id": 631801190, "highway": "bus_stop" }, "geometry": { "type": "Point", "coordinates": [ 72.5689346, 23.0119174 ] } },
{ "type": "Feature", "properties": { "element": "node", "id": 1349429257, "highway": null }, "geometry": { "type": "Point", "coordinates": [ 72.5780885, 23.0980898 ] } },
{ "type": "Feature", "properties": { "element": "node", "id": 1545721824, "highway": null }, "geometry": { "type": "Point", "coordinates": [ 72.4975186, 22.9821021 ] } },
{ "type": "Feature", "properties": { "element": "node", "id": 1952514121, "highway": "bus_stop" }, "geometry": { "type": "Point", "coordinates": [ 72.5624497, 23.0682646 ] } },
{ "type": "Feature", "properties": { "element": "node", "id": 2211705413, "highway": "bus_stop" }, "geometry": { "type": "Point", "coordinates": [ 72.5661042, 23.0844751 ] } },
{ "type": "Feature", "properties": { "element": "node", "id": 2265925488, "highway": "bus_stop" }, "geometry": { "type": "Point", "coordinates": [ 72.5386288, 23.0397128 ] } },
{ "type": "Feature", "properties": { "element": "node", "id": 2265925489, "highway": "bus_stop" }, "geometry": { "type": "Point", "coordinates": [ 72.53633, 23.0230285 ] } },
{ "type": "Feature", "properties": { "element": "node", "id": 2265925490, "highway": "bus_stop" }, "geometry": { "type": "Point", "coordinates": [ 72.5416944, 23.0225299 ] } },
{ "type": "Feature", "properties": { "element": "node", "id": 2265925491, "highway": "bus_stop" }, "geometry": { "type": "Point", "coordinates": [ 72.5360081, 23.0346324 ] } },
{ "type": "Feature", "properties": { "element": "node", "id": 2265925492, "highway": "bus_stop" }, "geometry": { "type": "Point", "coordinates": [ 72.5312229, 23.0242856 ] } },
{ "type": "Feature", "properties": { "element": "node", "id": 2265925493, "highway": "bus_stop" }, "geometry": { "type": "Point", "coordinates": [ 72.532414, 23.0297528 ] } },
{ "type": "Feature", "properties": { "element": "node", "id": 2265926056, "highway": "bus_stop" }, "geometry": { "type": "Point", "coordinates": [ 72.5440487, 23.0183103 ] } },
{ "type": "Feature", "properties": { "element": "node", "id": 2265953631, "highway": "bus_stop" }, "geometry": { "type": "Point", "coordinates": [ 72.5538743, 23.003723 ] } },
{ "type": "Feature", "properties": { "element": "node", "id": 2265953635, "highway": "bus_stop" }, "geometry": { "type": "Point", "coordinates": [ 72.6006692, 22.9999238 ] } },
{ "type": "Feature", "properties": { "element": "node", "id": 2265953636, "highway": "bus_stop" }, "geometry": { "type": "Point", "coordinates": [ 72.5870103, 23.0013898 ] } },
{ "type": "Feature", "properties": { "element": "node", "id": 2265953637, "highway": "bus_stop" }, "geometry": { "type": "Point", "coordinates": [ 72.5990646, 22.995457 ] } },
{ "type": "Feature", "properties": { "element": "node", "id": 2265953638, "highway": "bus_stop" }, "geometry": { "type": "Point", "coordinates": [ 72.6117044, 22.9948853 ] } },
{ "type": "Feature", "properties": { "element": "node", "id": 2265953639, "highway": "bus_stop" }, "geometry": { "type": "Point", "coordinates": [ 72.5829655, 22.9998665 ] } },
{ "type": "Feature", "properties": { "element": "node", "id": 2265953642, "highway": "bus_stop" }, "geometry": { "type": "Point", "coordinates": [ 72.6050988, 22.9951368 ] } },
{ "type": "Feature", "properties": { "element": "node", "id": 2265953643, "highway": "bus_stop" }, "geometry": { "type": "Point", "coordinates": [ 72.6064312, 22.9972369 ] } },
{ "type": "Feature", "properties": { "element": "node", "id": 2265953644, "highway": "bus_stop" }, "geometry": { "type": "Point", "coordinates": [ 72.570209, 22.9955236 ] } },
{ "type": "Feature", "properties": { "element": "node", "id": 2265953647, "highway": "bus_stop" }, "geometry": { "type": "Point", "coordinates": [ 72.5932198, 22.9990894 ] } },
{ "type": "Feature", "properties": { "element": "node", "id": 2265953648, "highway": "bus_stop" }, "geometry": { "type": "Point", "coordinates": [ 72.5990158, 23.0031799 ] } },
{ "type": "Feature", "properties": { "element": "node", "id": 2265953649, "highway": "bus_stop" }, "geometry": { "type": "Point", "coordinates": [ 72.6113755, 22.9978049 ] } },
{ "type": "Feature", "properties": { "element": "node", "id": 2265953650, "highway": "bus_stop" }, "geometry": { "type": "Point", "coordinates": [ 72.5928227, 23.0024169 ] } },
{ "type": "Feature", "properties": { "element": "node", "id": 2265953651, "highway": "bus_stop" }, "geometry": { "type": "Point", "coordinates": [ 72.5492824, 23.0082114 ] } },
{ "type": "Feature", "properties": { "element": "node", "id": 2265953652, "highway": "bus_stop" }, "geometry": { "type": "Point", "coordinates": [ 72.5580988, 22.9997529 ] } },
{ "type": "Feature", "properties": { "element": "node", "id": 2265953653, "highway": "bus_stop" }, "geometry": { "type": "Point", "coordinates": [ 72.5774026, 22.996491299999988 ] } },
{ "type": "Feature", "properties": { "element": "node", "id": 2288824667, "highway": "bus_stop" }, "geometry": { "type": "Point", "coordinates": [ 72.5321646, 23.0660707 ] } },
{ "type": "Feature", "properties": { "element": "node", "id": 2288824668, "highway": "bus_stop" }, "geometry": { "type": "Point", "coordinates": [ 72.5255748, 23.0631171 ] } },
{ "type": "Feature", "properties": { "element": "node", "id": 2376612715, "highway": null }, "geometry": { "type": "Point", "coordinates": [ 72.4934085, 23.0535306 ] } },
{ "type": "Feature", "properties": { "element": "node", "id": 2669084968, "highway": null }, "geometry": { "type": "Point", "coordinates": [ 72.601, 23.0263312 ] } },
{ "type": "Feature", "properties": { "element": "node", "id": 3231323519, "highway": "bus_stop" }, "geometry": { "type": "Point", "coordinates": [ 72.6167476, 23.0813883 ] } },
{ "type": "Feature", "properties": { "element": "node", "id": 3306683481, "highway": "bus_stop" }, "geometry": { "type": "Point", "coordinates": [ 72.586041200000011, 23.0197907 ] } },
{ "type": "Feature", "properties": { "element": "node", "id": 3316875855, "highway": "bus_stop" }, "geometry": { "type": "Point", "coordinates": [ 72.579101, 23.0220727 ] } },
{ "type": "Feature", "properties": { "element": "node", "id": 3333960611, "highway": "bus_stop" }, "geometry": { "type": "Point", "coordinates": [ 72.5953013, 22.9739626 ] } },
{ "type": "Feature", "properties": { "element": "node", "id": 3333960612, "highway": "bus_stop" }, "geometry": { "type": "Point", "coordinates": [ 72.5952484, 22.9740487 ] } },
{ "type": "Feature", "properties": { "element": "node", "id": 3333960613, "highway": "bus_stop" }, "geometry": { "type": "Point", "coordinates": [ 72.6023816, 22.9761795 ] } },
{ "type": "Feature", "properties": { "element": "node", "id": 3333960614, "highway": "bus_stop" }, "geometry": { "type": "Point", "coordinates": [ 72.6023401, 22.9762426 ] } },
{ "type": "Feature", "properties": { "element": "node", "id": 3333960615, "highway": "bus_stop" }, "geometry": { "type": "Point", "coordinates": [ 72.6101868, 22.9784932 ] } },
{ "type": "Feature", "properties": { "element": "node", "id": 3333960616, "highway": "bus_stop" }, "geometry": { "type": "Point", "coordinates": [ 72.610175, 22.9785615 ] } },
{ "type": "Feature", "properties": { "element": "node", "id": 3393851425, "highway": "bus_stop" }, "geometry": { "type": "Point", "coordinates": [ 72.6180264, 23.0594578 ] } },
{ "type": "Feature", "properties": { "element": "node", "id": 3415672552, "highway": "bus_stop" }, "geometry": { "type": "Point", "coordinates": [ 72.5385489, 23.0397496 ] } },
{ "type": "Feature", "properties": { "element": "node", "id": 3415672553, "highway": "bus_stop" }, "geometry": { "type": "Point", "coordinates": [ 72.5424176, 23.0455534 ] } },
{ "type": "Feature", "properties": { "element": "node", "id": 3415672554, "highway": "bus_stop" }, "geometry": { "type": "Point", "coordinates": [ 72.5424739, 23.0455543 ] } },
{ "type": "Feature", "properties": { "element": "node", "id": 4210649810, "highway": "bus_stop" }, "geometry": { "type": "Point", "coordinates": [ 72.5756845, 23.0676729 ] } },
{ "type": "Feature", "properties": { "element": "node", "id": 4312193889, "highway": null }, "geometry": { "type": "Point", "coordinates": [ 72.5483, 23.1559206 ] } },
{ "type": "Feature", "properties": { "element": "node", "id": 4376679089, "highway": "bus_stop" }, "geometry": { "type": "Point", "coordinates": [ 72.5258779, 23.0530366 ] } },
{ "type": "Feature", "properties": { "element": "node", "id": 4398457021, "highway": null }, "geometry": { "type": "Point", "coordinates": [ 72.6297981, 22.9589978 ] } },
{ "type": "Feature", "properties": { "element": "node", "id": 4481510492, "highway": "bus_stop" }, "geometry": { "type": "Point", "coordinates": [ 72.6800838, 23.0847663 ] } },
{ "type": "Feature", "properties": { "element": "node", "id": 4485407989, "highway": "bus_stop" }, "geometry": { "type": "Point", "coordinates": [ 72.5085005, 23.0315615 ] } },
{ "type": "Feature", "properties": { "element": "node", "id": 4486398588, "highway": null }, "geometry": { "type": "Point", "coordinates": [ 72.5870272, 23.0712603 ] } },
{ "type": "Feature", "properties": { "element": "node", "id": 4525895498, "highway": null }, "geometry": { "type": "Point", "coordinates": [ 72.6551837, 22.9168572 ] } },
{ "type": "Feature", "properties": { "element": "node", "id": 4585304001, "highway": "bus_stop" }, "geometry": { "type": "Point", "coordinates": [ 72.5512141, 23.0847978 ] } },
{ "type": "Feature", "properties": { "element": "node", "id": 4585304002, "highway": "bus_stop" }, "geometry": { "type": "Point", "coordinates": [ 72.5620316, 23.0670122 ] } },
{ "type": "Feature", "properties": { "element": "node", "id": 4588982754, "highway": "bus_stop" }, "geometry": { "type": "Point", "coordinates": [ 72.5252397, 23.025739 ] } },
{ "type": "Feature", "properties": { "element": "node", "id": 4588990189, "highway": "bus_stop" }, "geometry": { "type": "Point", "coordinates": [ 72.525333, 23.02562 ] } },
{ "type": "Feature", "properties": { "element": "node", "id": 4590687293, "highway": "bus_stop" }, "geometry": { "type": "Point", "coordinates": [ 72.5310458, 23.0060914 ] } },
{ "type": "Feature", "properties": { "element": "node", "id": 4702938189, "highway": "bus_stop" }, "geometry": { "type": "Point", "coordinates": [ 72.643304, 23.0655907 ] } },
{ "type": "Feature", "properties": { "element": "node", "id": 4794246527, "highway": "bus_stop" }, "geometry": { "type": "Point", "coordinates": [ 72.5771961, 23.081039 ] } },
{ "type": "Feature", "properties": { "element": "node", "id": 5327118488, "highway": "bus_stop" }, "geometry": { "type": "Point", "coordinates": [ 72.531215, 23.0243207 ] } },
{ "type": "Feature", "properties": { "element": "node", "id": 5327118489, "highway": "bus_stop" }, "geometry": { "type": "Point", "coordinates": [ 72.5313857, 23.0243186 ] } },
{ "type": "Feature", "properties": { "element": "node", "id": 5327118490, "highway": "bus_stop" }, "geometry": { "type": "Point", "coordinates": [ 72.5313961, 23.0242849 ] } },
{ "type": "Feature", "properties": { "element": "node", "id": 5445054647, "highway": "bus_stop" }, "geometry": { "type": "Point", "coordinates": [ 72.6113064, 22.9977864 ] } },
{ "type": "Feature", "properties": { "element": "node", "id": 5445054648, "highway": "bus_stop" }, "geometry": { "type": "Point", "coordinates": [ 72.6104161, 22.9979864 ] } },
{ "type": "Feature", "properties": { "element": "node", "id": 5445054650, "highway": "bus_stop" }, "geometry": { "type": "Point", "coordinates": [ 72.6013622, 22.9989051 ] } },
{ "type": "Feature", "properties": { "element": "node", "id": 5540117734, "highway": "bus_stop" }, "geometry": { "type": "Point", "coordinates": [ 72.6113901, 22.9978087 ] } },
{ "type": "Feature", "properties": { "element": "node", "id": 5540117735, "highway": "bus_stop" }, "geometry": { "type": "Point", "coordinates": [ 72.606434, 22.9972438 ] } },
{ "type": "Feature", "properties": { "element": "node", "id": 5540117736, "highway": "bus_stop" }, "geometry": { "type": "Point", "coordinates": [ 72.6006742, 22.9999248 ] } },
{ "type": "Feature", "properties": { "element": "node", "id": 5545191206, "highway": "bus_stop" }, "geometry": { "type": "Point", "coordinates": [ 72.5177376, 23.027686 ] } },
{ "type": "Feature", "properties": { "element": "node", "id": 5545191207, "highway": "bus_stop" }, "geometry": { "type": "Point", "coordinates": [ 72.5126258, 23.0275153 ] } },
{ "type": "Feature", "properties": { "element": "node", "id": 5545191837, "highway": "bus_stop" }, "geometry": { "type": "Point", "coordinates": [ 72.5049454, 23.0274858 ] } },
{ "type": "Feature", "properties": { "element": "node", "id": 5545191838, "highway": "bus_stop" }, "geometry": { "type": "Point", "coordinates": [ 72.5009162, 23.0277628 ] } },
{ "type": "Feature", "properties": { "element": "node", "id": 5711617727, "highway": "bus_stop" }, "geometry": { "type": "Point", "coordinates": [ 72.4596133, 23.0320762 ] } },
{ "type": "Feature", "properties": { "element": "node", "id": 5725638703, "highway": null }, "geometry": { "type": "Point", "coordinates": [ 72.5440359, 23.0751633 ] } },
{ "type": "Feature", "properties": { "element": "node", "id": 5725639222, "highway": null }, "geometry": { "type": "Point", "coordinates": [ 72.4517314, 23.038673 ] } },
{ "type": "Feature", "properties": { "element": "node", "id": 6564864665, "highway": null }, "geometry": { "type": "Point", "coordinates": [ 72.6360457, 23.0652172 ] } },
{ "type": "Feature", "properties": { "element": "node", "id": 6738428335, "highway": null }, "geometry": { "type": "Point", "coordinates": [ 72.5408184, 23.0807984 ] } },
{ "type": "Feature", "properties": { "element": "node", "id": 6758793148, "highway": null }, "geometry": { "type": "Point", "coordinates": [ 72.4704112, 22.9645191 ] } },
{ "type": "Feature", "properties": { "element": "node", "id": 6759274176, "highway": null }, "geometry": { "type": "Point", "coordinates": [ 72.4407996, 22.9306513 ] } },
{ "type": "Feature", "properties": { "element": "node", "id": 7556326461, "highway": null }, "geometry": { "type": "Point", "coordinates": [ 72.5637712, 23.1103339 ] } },
{ "type": "Feature", "properties": { "element": "node", "id": 7944287415, "highway": null }, "geometry": { "type": "Point", "coordinates": [ 72.6031447, 23.0246913 ] } },
{ "type": "Feature", "properties": { "element": "node", "id": 7944287418, "highway": null }, "geometry": { "type": "Point", "coordinates": [ 72.6070016, 23.0154573 ] } },
{ "type": "Feature", "properties": { "element": "node", "id": 7944287421, "highway": null }, "geometry": { "type": "Point", "coordinates": [ 72.5810327, 23.0392105 ] } },
{ "type": "Feature", "properties": { "element": "node", "id": 7944287424, "highway": null }, "geometry": { "type": "Point", "coordinates": [ 72.5867752, 23.028794 ] } },
{ "type": "Feature", "properties": { "element": "node", "id": 8157583232, "highway": "bus_stop" }, "geometry": { "type": "Point", "coordinates": [ 72.4640698, 23.0340068 ] } },
{ "type": "Feature", "properties": { "element": "node", "id": 9316233962, "highway": "bus_stop" }, "geometry": { "type": "Point", "coordinates": [ 72.5725601, 23.1775522 ] } },
{ "type": "Feature", "properties": { "element": "node", "id": 9316233963, "highway": "bus_stop" }, "geometry": { "type": "Point", "coordinates": [ 72.5726245, 23.1775485 ] } },
{ "type": "Feature", "properties": { "element": "node", "id": 10177919684, "highway": "bus_stop" }, "geometry": { "type": "Point", "coordinates": [ 72.4656001, 23.0161011 ] } },
{ "type": "Feature", "properties": { "element": "node", "id": 12196641344, "highway": null }, "geometry": { "type": "Point", "coordinates": [ 72.6386122, 23.1419718 ] } },
{ "type": "Feature", "properties": { "element": "node", "id": 12196641345, "highway": null }, "geometry": { "type": "Point", "coordinates": [ 72.631042, 23.1322508 ] } },
{ "type": "Feature", "properties": { "element": "node", "id": 12196641346, "highway": null }, "geometry": { "type": "Point", "coordinates": [ 72.6220979, 23.1251457 ] } },
{ "type": "Feature", "properties": { "element": "node", "id": 12196641347, "highway": null }, "geometry": { "type": "Point", "coordinates": [ 72.6157987, 23.1201271 ] } },
{ "type": "Feature", "properties": { "element": "node", "id": 12196641348, "highway": null }, "geometry": { "type": "Point", "coordinates": [ 72.6083864, 23.1141999 ] } },
{ "type": "Feature", "properties": { "element": "node", "id": 12196641349, "highway": null }, "geometry": { "type": "Point", "coordinates": [ 72.6021329, 23.1031114 ] } },
{ "type": "Feature", "properties": { "element": "node", "id": 12196641355, "highway": null }, "geometry": { "type": "Point", "coordinates": [ 72.6474689, 23.1544724 ] } },
{ "type": "Feature", "properties": { "element": "node", "id": 12196641362, "highway": null }, "geometry": { "type": "Point", "coordinates": [ 72.593291, 23.0751088 ] } },
{ "type": "Feature", "properties": { "element": "node", "id": 12196641364, "highway": null }, "geometry": { "type": "Point", "coordinates": [ 72.592206, 23.0856303 ] } },
{ "type": "Feature", "properties": { "element": "node", "id": 12196641366, "highway": null }, "geometry": { "type": "Point", "coordinates": [ 72.596692, 23.0967726 ] } },
{ "type": "Feature", "properties": { "element": "node", "id": 12406995811, "highway": null }, "geometry": { "type": "Point", "coordinates": [ 72.5160152, 23.049748 ] } },
{ "type": "Feature", "properties": { "element": "node", "id": 12408894281, "highway": null }, "geometry": { "type": "Point", "coordinates": [ 72.5070123, 23.0502062 ] } },
{ "type": "Feature", "properties": { "element": "node", "id": 12696728310, "highway": null }, "geometry": { "type": "Point", "coordinates": [ 72.6612117, 23.1548645 ] } },
{ "type": "Feature", "properties": { "element": "node", "id": 12912651330, "highway": "bus_stop" }, "geometry": { "type": "Point", "coordinates": [ 72.6100622, 23.0523056 ] } },
{ "type": "Feature", "properties": { "element": "node", "id": 12912651331, "highway": "bus_stop" }, "geometry": { "type": "Point", "coordinates": [ 72.6101214, 23.0521516 ] } },
{ "type": "Feature", "properties": { "element": "node", "id": 13081325157, "highway": "bus_stop" }, "geometry": { "type": "Point", "coordinates": [ 72.5952154, 23.0528796 ] } },
{ "type": "Feature", "properties": { "element": "node", "id": 13116047286, "highway": "bus_stop" }, "geometry": { "type": "Point", "coordinates": [ 72.4421495, 23.0549257 ] } },
{ "type": "Feature", "properties": { "element": "node", "id": 13324639910, "highway": "bus_stop" }, "geometry": { "type": "Point", "coordinates": [ 72.6429675, 23.0642483 ] } },
{ "type": "Feature", "properties": { "element": "node", "id": 13324639911, "highway": "bus_stop" }, "geometry": { "type": "Point", "coordinates": [ 72.6429405, 23.0598077 ] } },
{ "type": "Feature", "properties": { "element": "node", "id": 13324639912, "highway": "bus_stop" }, "geometry": { "type": "Point", "coordinates": [ 72.6424602, 23.0549301 ] } },
{ "type": "Feature", "properties": { "element": "node", "id": 13324639913, "highway": "bus_stop" }, "geometry": { "type": "Point", "coordinates": [ 72.6418538, 23.0513889 ] } },
{ "type": "Feature", "properties": { "element": "node", "id": 13324639914, "highway": "bus_stop" }, "geometry": { "type": "Point", "coordinates": [ 72.6409989, 23.0456662 ] } },
{ "type": "Feature", "properties": { "element": "node", "id": 13324639915, "highway": "bus_stop" }, "geometry": { "type": "Point", "coordinates": [ 72.640553, 23.0412083 ] } },
{ "type": "Feature", "properties": { "element": "node", "id": 13324639916, "highway": "bus_stop" }, "geometry": { "type": "Point", "coordinates": [ 72.6400507, 23.0369762 ] } },
{ "type": "Feature", "properties": { "element": "node", "id": 13324639917, "highway": "bus_stop" }, "geometry": { "type": "Point", "coordinates": [ 72.6392784, 23.0326239 ] } },
{ "type": "Feature", "properties": { "element": "node", "id": 13324639918, "highway": "bus_stop" }, "geometry": { "type": "Point", "coordinates": [ 72.6388022, 23.0275605 ] } },
{ "type": "Feature", "properties": { "element": "node", "id": 13324639919, "highway": "bus_stop" }, "geometry": { "type": "Point", "coordinates": [ 72.6384382, 23.0205533 ] } },
{ "type": "Feature", "properties": { "element": "node", "id": 13324639920, "highway": "bus_stop" }, "geometry": { "type": "Point", "coordinates": [ 72.6384534, 23.0174077 ] } },
{ "type": "Feature", "properties": { "element": "node", "id": 13324639921, "highway": "bus_stop" }, "geometry": { "type": "Point", "coordinates": [ 72.6384727, 23.0136638 ] } },
{ "type": "Feature", "properties": { "element": "node", "id": 13324639922, "highway": "bus_stop" }, "geometry": { "type": "Point", "coordinates": [ 72.6381291, 23.0080678 ] } },
{ "type": "Feature", "properties": { "element": "node", "id": 13324639923, "highway": "bus_stop" }, "geometry": { "type": "Point", "coordinates": [ 72.6369046, 23.0043839 ] } },
{ "type": "Feature", "properties": { "element": "node", "id": 13324639924, "highway": "bus_stop" }, "geometry": { "type": "Point", "coordinates": [ 72.6356334, 23.0005139 ] } },
{ "type": "Feature", "properties": { "element": "node", "id": 13324639925, "highway": "bus_stop" }, "geometry": { "type": "Point", "coordinates": [ 72.6342048, 22.9961731 ] } },
{ "type": "Feature", "properties": { "element": "node", "id": 13324639926, "highway": "bus_stop" }, "geometry": { "type": "Point", "coordinates": [ 72.6317678, 22.9913284 ] } },
{ "type": "Feature", "properties": { "element": "node", "id": 13324639927, "highway": "bus_stop" }, "geometry": { "type": "Point", "coordinates": [ 72.6276786, 22.9873084 ] } },
{ "type": "Feature", "properties": { "element": "node", "id": 13324639928, "highway": "bus_stop" }, "geometry": { "type": "Point", "coordinates": [ 72.6239988, 22.983866 ] } },
{ "type": "Feature", "properties": { "element": "node", "id": 13324639929, "highway": "bus_stop" }, "geometry": { "type": "Point", "coordinates": [ 72.6101796, 22.9785228 ] } },
{ "type": "Feature", "properties": { "element": "node", "id": 13324639930, "highway": "bus_stop" }, "geometry": { "type": "Point", "coordinates": [ 72.6023849, 22.976216 ] } },
{ "type": "Feature", "properties": { "element": "node", "id": 13324639931, "highway": "bus_stop" }, "geometry": { "type": "Point", "coordinates": [ 72.5953065, 22.9740123 ] } },
{ "type": "Feature", "properties": { "element": "node", "id": 13324639932, "highway": "bus_stop" }, "geometry": { "type": "Point", "coordinates": [ 72.5895984, 22.9729765 ] } },
{ "type": "Feature", "properties": { "element": "node", "id": 13324639933, "highway": "bus_stop" }, "geometry": { "type": "Point", "coordinates": [ 72.5867831, 22.9768712 ] } },
{ "type": "Feature", "properties": { "element": "node", "id": 13324639934, "highway": "bus_stop" }, "geometry": { "type": "Point", "coordinates": [ 72.5857084, 22.9821643 ] } },
{ "type": "Feature", "properties": { "element": "node", "id": 13324639935, "highway": "bus_stop" }, "geometry": { "type": "Point", "coordinates": [ 72.5826202, 22.9864945 ] } },
{ "type": "Feature", "properties": { "element": "node", "id": 13324639936, "highway": "bus_stop" }, "geometry": { "type": "Point", "coordinates": [ 72.5816699, 22.9915528 ] } },
{ "type": "Feature", "properties": { "element": "node", "id": 13324639937, "highway": "bus_stop" }, "geometry": { "type": "Point", "coordinates": [ 72.5791374, 22.9961364 ] } },
{ "type": "Feature", "properties": { "element": "node", "id": 13582340756, "highway": "bus_stop" }, "geometry": { "type": "Point", "coordinates": [ 72.5909683, 23.1091079 ] } },
{ "type": "Feature", "properties": { "element": "node", "id": 13582340757, "highway": "bus_stop" }, "geometry": { "type": "Point", "coordinates": [ 72.5910153, 23.1092205 ] } },
{ "type": "Feature", "properties": { "element": "node", "id": 13582340758, "highway": "bus_stop" }, "geometry": { "type": "Point", "coordinates": [ 72.5927065, 23.1093569 ] } },
{ "type": "Feature", "properties": { "element": "node", "id": 13582340759, "highway": "bus_stop" }, "geometry": { "type": "Point", "coordinates": [ 72.592907700000012, 23.1091859 ] } },
{ "type": "Feature", "properties": { "element": "node", "id": 13831008601, "highway": "bus_stop" }, "geometry": { "type": "Point", "coordinates": [ 72.52929, 23.0651818 ] } },
{ "type": "Feature", "properties": { "element": "node", "id": 13831023302, "highway": "bus_stop" }, "geometry": { "type": "Point", "coordinates": [ 72.4951871, 23.0830981 ] } },
{ "type": "Feature", "properties": { "element": "node", "id": 13971550301, "highway": "bus_stop" }, "geometry": { "type": "Point", "coordinates": [ 72.643691, 23.060079 ] } },
{ "type": "Feature", "properties": { "element": "node", "id": 14065371938, "highway": "bus_stop" }, "geometry": { "type": "Point", "coordinates": [ 72.5901624, 23.0918799 ] } },
{ "type": "Feature", "properties": { "element": "node", "id": 14065371939, "highway": "bus_stop" }, "geometry": { "type": "Point", "coordinates": [ 72.5900854, 23.0920986 ] } },
{ "type": "Feature", "properties": { "element": "node", "id": 14065371944, "highway": "bus_stop" }, "geometry": { "type": "Point", "coordinates": [ 72.5885243, 23.0975286 ] } },
{ "type": "Feature", "properties": { "element": "node", "id": 14065378501, "highway": "bus_stop" }, "geometry": { "type": "Point", "coordinates": [ 72.588619, 23.0972869 ] } },
{ "type": "Feature", "properties": { "element": "node", "id": 14065537947, "highway": "bus_stop" }, "geometry": { "type": "Point", "coordinates": [ 72.5866936, 23.1034258 ] } },
{ "type": "Feature", "properties": { "element": "node", "id": 14065537984, "highway": "bus_stop" }, "geometry": { "type": "Point", "coordinates": [ 72.5918272, 23.0861655 ] } },
{ "type": "Feature", "properties": { "element": "node", "id": 14065537993, "highway": "bus_stop" }, "geometry": { "type": "Point", "coordinates": [ 72.58512260000002, 23.1083631 ] } },
{ "type": "Feature", "properties": { "element": "node", "id": 14065559352, "highway": "bus_stop" }, "geometry": { "type": "Point", "coordinates": [ 72.5919337, 23.0859657 ] } },
{ "type": "Feature", "properties": { "element": "node", "id": 14065559355, "highway": "bus_stop" }, "geometry": { "type": "Point", "coordinates": [ 72.5866105, 23.103616 ] } },
{ "type": "Feature", "properties": { "element": "node", "id": 14065559360, "highway": "bus_stop" }, "geometry": { "type": "Point", "coordinates": [ 72.5852064, 23.1081536 ] } },
{ "type": "Feature", "properties": { "element": "node", "id": 14065592772, "highway": "bus_stop" }, "geometry": { "type": "Point", "coordinates": [ 72.5605965, 23.0206839 ] } },
{ "type": "Feature", "properties": { "element": "node", "id": 14065980175, "highway": "bus_stop" }, "geometry": { "type": "Point", "coordinates": [ 72.5951415, 23.0621384 ] } },
{ "type": "Feature", "properties": { "element": "node", "id": 14066805529, "highway": "bus_stop" }, "geometry": { "type": "Point", "coordinates": [ 72.5589352, 23.0239489 ] } },
{ "type": "Feature", "properties": { "element": "node", "id": 14066805535, "highway": "bus_stop" }, "geometry": { "type": "Point", "coordinates": [ 72.5703788, 23.0237239 ] } },
{ "type": "Feature", "properties": { "element": "node", "id": 14066805548, "highway": "bus_stop" }, "geometry": { "type": "Point", "coordinates": [ 72.5701678, 23.023699 ] } },
{ "type": "Feature", "properties": { "element": "node", "id": 14066805549, "highway": "bus_stop" }, "geometry": { "type": "Point", "coordinates": [ 72.5591535, 23.023959 ] } },
{ "type": "Feature", "properties": { "element": "node", "id": 14067660536, "highway": "bus_stop" }, "geometry": { "type": "Point", "coordinates": [ 72.586230900000018, 23.0196415 ] } },
{ "type": "Feature", "properties": { "element": "node", "id": 14067896007, "highway": "bus_stop" }, "geometry": { "type": "Point", "coordinates": [ 72.5884581, 23.018649 ] } },
{ "type": "Feature", "properties": { "element": "node", "id": 14067896008, "highway": "bus_stop" }, "geometry": { "type": "Point", "coordinates": [ 72.5886857, 23.0185902 ] } },
{ "type": "Feature", "properties": { "element": "node", "id": 14067896010, "highway": "bus_stop" }, "geometry": { "type": "Point", "coordinates": [ 72.5807193, 23.0217848 ] } },
{ "type": "Feature", "properties": { "element": "node", "id": 14067896014, "highway": "bus_stop" }, "geometry": { "type": "Point", "coordinates": [ 72.580265, 23.0219756 ] } },
{ "type": "Feature", "properties": { "element": "node", "id": 14067896024, "highway": "bus_stop" }, "geometry": { "type": "Point", "coordinates": [ 72.5804717, 23.0219706 ] } },
{ "type": "Feature", "properties": { "element": "node", "id": 14067896029, "highway": "bus_stop" }, "geometry": { "type": "Point", "coordinates": [ 72.5711271, 23.0499103 ] } },
{ "type": "Feature", "properties": { "element": "node", "id": 14068187984, "highway": "bus_stop" }, "geometry": { "type": "Point", "coordinates": [ 72.5786126, 23.0273329 ] } },
{ "type": "Feature", "properties": { "element": "node", "id": 14068187990, "highway": "bus_stop" }, "geometry": { "type": "Point", "coordinates": [ 72.5661335, 23.0215573 ] } },
{ "type": "Feature", "properties": { "element": "node", "id": 14068187993, "highway": "bus_stop" }, "geometry": { "type": "Point", "coordinates": [ 72.5711213, 23.0249562 ] } },
{ "type": "Feature", "properties": { "element": "way", "id": 456784607, "highway": null }, "geometry": { "type": "Point", "coordinates": [ 72.602224712686947, 23.026178072547072 ] } },
{ "type": "Feature", "properties": { "element": "way", "id": 456784615, "highway": null }, "geometry": { "type": "Point", "coordinates": [ 72.601079446872447, 23.025742185175744 ] } },
{ "type": "Feature", "properties": { "element": "way", "id": 456784617, "highway": null }, "geometry": { "type": "Point", "coordinates": [ 72.601424287535949, 23.026229918926237 ] } },
{ "type": "Feature", "properties": { "element": "way", "id": 456784624, "highway": null }, "geometry": { "type": "Point", "coordinates": [ 72.602672739605268, 23.024662015675169 ] } },
{ "type": "Feature", "properties": { "element": "way", "id": 456784626, "highway": null }, "geometry": { "type": "Point", "coordinates": [ 72.602443397518869, 23.025488566080746 ] } },
{ "type": "Feature", "properties": { "element": "way", "id": 456784629, "highway": null }, "geometry": { "type": "Point", "coordinates": [ 72.60202367716181, 23.024862645454625 ] } },
{ "type": "Feature", "properties": { "element": "way", "id": 456784631, "highway": null }, "geometry": { "type": "Point", "coordinates": [ 72.601856229999669, 23.026064366771571 ] } },
{ "type": "Feature", "properties": { "element": "way", "id": 487641400, "highway": null }, "geometry": { "type": "Point", "coordinates": [ 72.588895213852069, 23.077133287371595 ] } },
{ "type": "Feature", "properties": { "element": "way", "id": 487641402, "highway": null }, "geometry": { "type": "Point", "coordinates": [ 72.588345116095581, 23.07763428211593 ] } },
{ "type": "Feature", "properties": { "element": "way", "id": 487641405, "highway": null }, "geometry": { "type": "Point", "coordinates": [ 72.588096043539153, 23.077525890128271 ] } },
{ "type": "Feature", "properties": { "element": "way", "id": 519828737, "highway": null }, "geometry": { "type": "Point", "coordinates": [ 72.655341362447928, 22.916946985183365 ] } },
{ "type": "Feature", "properties": { "element": "way", "id": 519828738, "highway": null }, "geometry": { "type": "Point", "coordinates": [ 72.655780453211079, 22.917256978326073 ] } },
{ "type": "Feature", "properties": { "element": "way", "id": 519839569, "highway": null }, "geometry": { "type": "Point", "coordinates": [ 72.629257614387654, 22.959446190821229 ] } },
{ "type": "Feature", "properties": { "element": "way", "id": 519839570, "highway": null }, "geometry": { "type": "Point", "coordinates": [ 72.629395775782697, 22.958647922689895 ] } },
{ "type": "Feature", "properties": { "element": "way", "id": 559508821, "highway": null }, "geometry": { "type": "Point", "coordinates": [ 72.548002481006151, 23.156258337510391 ] } },
{ "type": "Feature", "properties": { "element": "way", "id": 559508822, "highway": null }, "geometry": { "type": "Point", "coordinates": [ 72.547135889708755, 23.157244192733327 ] } },
{ "type": "Feature", "properties": { "element": "way", "id": 602995032, "highway": null }, "geometry": { "type": "Point", "coordinates": [ 72.493585820183455, 23.053999798865629 ] } },
{ "type": "Feature", "properties": { "element": "way", "id": 602995033, "highway": null }, "geometry": { "type": "Point", "coordinates": [ 72.493048647581816, 23.0535395644124 ] } },
{ "type": "Feature", "properties": { "element": "way", "id": 1006803615, "highway": null }, "geometry": { "type": "Point", "coordinates": [ 72.614624989950727, 23.045794747389163 ] } },
{ "type": "Feature", "properties": { "element": "way", "id": 1006803616, "highway": null }, "geometry": { "type": "Point", "coordinates": [ 72.614693684533691, 23.045580168268245 ] } },
{ "type": "Feature", "properties": { "element": "way", "id": 1101028012, "highway": null }, "geometry": { "type": "Point", "coordinates": [ 72.53712215542744, 22.99774454156767 ] } },
{ "type": "Feature", "properties": { "element": "way", "id": 1101058047, "highway": null }, "geometry": { "type": "Point", "coordinates": [ 72.574083776137655, 23.067674050232934 ] } },
{ "type": "Feature", "properties": { "element": "way", "id": 1101058050, "highway": null }, "geometry": { "type": "Point", "coordinates": [ 72.549222448692504, 23.013597651124947 ] } },
{ "type": "Feature", "properties": { "element": "way", "id": 1101058051, "highway": null }, "geometry": { "type": "Point", "coordinates": [ 72.53675224099355, 23.009722920455495 ] } },
{ "type": "Feature", "properties": { "element": "way", "id": 1101058052, "highway": null }, "geometry": { "type": "Point", "coordinates": [ 72.533492805261815, 23.005498890131346 ] } },
{ "type": "Feature", "properties": { "element": "way", "id": 1107146505, "highway": null }, "geometry": { "type": "Point", "coordinates": [ 72.568936494365303, 23.027036778951505 ] } },
{ "type": "Feature", "properties": { "element": "way", "id": 1198134736, "highway": null }, "geometry": { "type": "Point", "coordinates": [ 72.561676688852842, 23.039841381440688 ] } },
{ "type": "Feature", "properties": { "element": "way", "id": 1198134737, "highway": null }, "geometry": { "type": "Point", "coordinates": [ 72.552972963496998, 23.040701299602773 ] } },
{ "type": "Feature", "properties": { "element": "way", "id": 1198134738, "highway": null }, "geometry": { "type": "Point", "coordinates": [ 72.534873449722824, 23.045882901493773 ] } },
{ "type": "Feature", "properties": { "element": "way", "id": 1198134739, "highway": null }, "geometry": { "type": "Point", "coordinates": [ 72.524420850391792, 23.048176401475505 ] } },
{ "type": "Feature", "properties": { "element": "way", "id": 1198134744, "highway": null }, "geometry": { "type": "Point", "coordinates": [ 72.565758815494021, 23.067667175817849 ] } },
{ "type": "Feature", "properties": { "element": "way", "id": 1198134745, "highway": null }, "geometry": { "type": "Point", "coordinates": [ 72.562340938775392, 23.056197918225269 ] } },
{ "type": "Feature", "properties": { "element": "way", "id": 1198134747, "highway": null }, "geometry": { "type": "Point", "coordinates": [ 72.564982051035599, 23.045837099324928 ] } },
{ "type": "Feature", "properties": { "element": "way", "id": 1198134751, "highway": null }, "geometry": { "type": "Point", "coordinates": [ 72.543529636336842, 23.044847693072779 ] } },
{ "type": "Feature", "properties": { "element": "way", "id": 1198134752, "highway": null }, "geometry": { "type": "Point", "coordinates": [ 72.567076201644781, 23.03736472569523 ] } },
{ "type": "Feature", "properties": { "element": "way", "id": 1198140890, "highway": null }, "geometry": { "type": "Point", "coordinates": [ 72.667391001209978, 22.997139651368347 ] } },
{ "type": "Feature", "properties": { "element": "way", "id": 1198140891, "highway": null }, "geometry": { "type": "Point", "coordinates": [ 72.658896258730252, 22.999716456862654 ] } },
{ "type": "Feature", "properties": { "element": "way", "id": 1198140892, "highway": null }, "geometry": { "type": "Point", "coordinates": [ 72.647594220052824, 23.003598864544859 ] } },
{ "type": "Feature", "properties": { "element": "way", "id": 1198140893, "highway": null }, "geometry": { "type": "Point", "coordinates": [ 72.635406298503526, 23.005470245840957 ] } },
{ "type": "Feature", "properties": { "element": "way", "id": 1198140894, "highway": null }, "geometry": { "type": "Point", "coordinates": [ 72.628727955406688, 23.007667209150565 ] } },
{ "type": "Feature", "properties": { "element": "way", "id": 1198140895, "highway": null }, "geometry": { "type": "Point", "coordinates": [ 72.618009849767901, 23.010669601533266 ] } },
{ "type": "Feature", "properties": { "element": "way", "id": 1198140896, "highway": null }, "geometry": { "type": "Point", "coordinates": [ 72.562406958506884, 23.018497222941217 ] } },
{ "type": "Feature", "properties": { "element": "way", "id": 1288731476, "highway": null }, "geometry": { "type": "Point", "coordinates": [ 72.593364719423661, 23.081517975835943 ] } },
{ "type": "Feature", "properties": { "element": "way", "id": 1317807984, "highway": null }, "geometry": { "type": "Point", "coordinates": [ 72.643905435101786, 23.147609761079018 ] } },
{ "type": "Feature", "properties": { "element": "way", "id": 1418561379, "highway": "platform" }, "geometry": { "type": "Point", "coordinates": [ 72.548876271067172, 23.034953229193786 ] } }
]
}
