{
  "type": "FeatureCollection",
  "features": [
    {
      "type": "Feature",
      "geometry": {
        "type": "Polygon",
        "coordinates": [
          [
            [
              72.98523187728162,
              21.1702
            ],
            [
              72.98448969016398,
              21.184383542057276
            ],
            [
              72.98227027647873,
              21.198430488851027
            ],
            [
              72.97859501039291,
              21.21220556060479
            ],
            [
              72.97349928672803,
              21.22557609584735
            ],
            [
              72.9670321800886,
              21.23841332901525
            ],
            [
              72.95925597224681,
              21.250593630535533
            ],
            [
              72.95024555233512,
              21.26199969744613
            ],
            [
              72.94008769562285,
              21.2725216830875
            ],
            [
              72.928880227823,
              21.282058254986016
            ],
            [
              72.9167310829771,
              21.290517570741077
            ],
            [
              72.90375726399142,
              21.297818162517625
            ],
            [
              72.890083715835,
              21.303889721625946
            ],
            [
              72.87584212225133,
              21.30867377563277
            ],
            [
              72.86116963757182,
              21.31212425148279
            ],
            [
              72.84620756584478,
              21.314207919207337
            ],
            [
              72.8311,
              21.314904711947182
            ],
            [
              72.81599243415523,
              21.314207919207337
            ],
            [
              72.8010303624282,
              21.31212425148279
            ],
            [
              72.78635787774869,
              21.30867377563277
            ],
            [
              72.77211628416501,
              21.303889721625946
            ],
            [
              72.75844273600859,
              21.297818162517625
            ],
            [
              72.74546891702292,
              21.290517570741077
            ],
            [
              72.73331977217701,
              21.282058254986016
            ],
            [
              72.72211230437716,
              21.2725216830875
            ],
            [
              72.7119544476649,
              21.26199969744613
            ],
            [
              72.7029440277532,
              21.250593630535533
            ],
            [
              72.69516781991142,
              21.23841332901525
            ],
            [
              72.68870071327198,
              21.22557609584735
            ],
            [
              72.6836049896071,
              21.21220556060479
            ],
            [
              72.67992972352128,
              21.198430488851027
            ],
            [
              72.67771030983603,
              21.184383542057276
            ],
            [
              72.67696812271839,
              21.1702
            ],
            [
              72.67771030983603,
              21.156016457942727
            ],
            [
              72.67992972352128,
              21.141969511148975
            ],
            [
              72.6836049896071,
              21.128194439395212
            ],
            [
              72.68870071327198,
              21.11482390415265
            ],
            [
              72.69516781991142,
              21.101986670984754
            ],
            [
              72.7029440277532,
              21.08980636946447
            ],
            [
              72.7119544476649,
              21.078400302553874
            ],
            [
              72.72211230437716,
              21.067878316912502
            ],
            [
              72.73331977217701,
              21.058341745013987
            ],
            [
              72.74546891702292,
              21.049882429258925
            ],
            [
              72.75844273600859,
              21.042581837482377
            ],
            [
              72.77211628416501,
              21.036510278374056
            ],
            [
              72.78635787774869,
              21.031726224367233
            ],
            [
              72.80103036242818,
              21.028275748517213
            ],
            [
              72.81599243415523,
              21.026192080792665
            ],
            [
              72.8311,
              21.02549528805282
            ],
            [
              72.84620756584478,
              21.026192080792665
            ],
            [
              72.86116963757182,
              21.028275748517213
            ],
            [
              72.87584212225133,
              21.031726224367233
            ],
            [
              72.890083715835,
              21.036510278374056
            ],
            [
              72.90375726399142,
              21.042581837482377
            ],
            [
              72.9167310829771,
              21.049882429258925
            ],
            [
              72.928880227823,
              21.058341745013987
            ],
            [
              72.94008769562285,
              21.067878316912502
            ],
            [
              72.95024555233512,
              21.078400302553874
            ],
            [
              72.95925597224681,
              21.08980636946447
            ],
            [
              72.9670321800886,
              21.101986670984754
            ],
            [
              72.97349928672803,
              21.11482390415265
            ],
            [
              72.97859501039291,
              21.128194439395212
            ],
            [
              72.98227027647873,
              21.141969511148975
            ],
            [
              72.98448969016398,
              21.156016457942727
            ],
            [
              72.98523187728162,
              21.1702
            ]
          ]
        ]
      },
      "properties": {
        "city_id": "surat",
        "city_name": "Surat",
        "radius_km": 16.0,
        "center": [
          72.8311,
          21.1702
        ],
        "area_km2": 804.25
      }
    }
  ]
}